DateTimeEntered,DateTimePosted,UpdatedOn,Category,Source,SignType,CompanyName,CompanyPhone,PermitNumber,NumberOfSigns,StartDate,EndDate,StartTime,EndTime,Notes,24HourEnforcement,SignID,SideOfStreet,location_desc,address,cnn,StreetFrontageFeet,Block,Lot,Latitude,Longitude,Location,SignLink,AllDataLink,StreetFrontageName,StreetFrontageFrom,StreetFrontageTo
04/04/2024 11:29:47 AM,04/15/2024 12:43:00 PM,04/04/2024 11:29:47 AM,Construction - Private,StreetSpaceRequest,DBI,Nancy Built llc,415-828-5772,24-32-249332,3,04/18/2024,07/18/2024,7:00,18:00,7AM - 6PM - Mon - Sat,N,310650,S,BELMONT AVE: EDGEWOOD AVE to WILLARD ST (1 - 99),150 EDGEWOOD AVE,2907000,34,,,37.76292327242013,-122.45447784507931,"(37.76292327242013, -122.45447784507931)",,,,,
04/15/2024 11:23:24 AM,04/15/2024 10:52:50 AM,04/15/2024 11:23:24 AM,Construction - Private,StreetSpaceRequest,DBI,Doherty Restoration,(415) 645-1495,24-8-249701,3,04/16/2024,06/16/2024,7:00,18:00,7AM - 6PM - Mon - Fri,N,311381,S,23RD ST: SOUTH VAN NESS AVE to CAPP ST (3200 - 3249),3201 23RD ST,1263000,37,3642,001,37.75374830526686,-122.41667108271209,"(37.75374830526686, -122.41667108271209)",,,,,
04/15/2024 10:43:10 AM,01/01/1900 12:00:00 AM,04/15/2024 10:43:10 AM,Construction - Private,StreetSpaceRequest,DBI,Reliable Construction,415-279-5705,24-36-249969,2,04/22/2024,06/22/2024,7:00,18:00,7AM - 6PM - Mon - Sat,N,311373,W,42ND AVE: ULLOA ST to VICENTE ST (2500 - 2599),2547 42ND AVE,1945000,20,2443,006B,37.73919028027473,-122.50046668894964,"(37.73919028027473, -122.50046668894964)",,,,,
04/10/2024 02:04:25 PM,04/15/2024 12:53:59 PM,04/10/2024 02:04:25 PM,Construction - Private,StreetSpaceRequest,DBI,Kerley Construction Inc,415-505-5849,23-51-241647,2,04/15/2024,06/15/2024,7:00,18:00,7AM - 6PM - Mon - Sat,N,311087,N,CESAR CHAVEZ ST: DOLORES ST to CHURCH ST (3800 - 3899),3840 CESAR CHAVEZ ST,2492000,20,6566,014,37.74801379841901,-122.42586144884294,"(37.74801379841901, -122.42586144884294)",,,,,
02/26/2024 10:19:40 AM,03/12/2024 02:03:48 PM,02/26/2024 10:19:40 AM,Construction - Private,StreetSpaceRequest,DBI,Modamas,(415) 552-6567,24-37-246699,2,03/12/2024,05/12/2024,7:00,18:00,7AM - 6PM - Mon - Sat,N,307737,E,DARRELL PL: FILBERT ST to END: 1-99 BLOCK (1 - 99),34 DARRELL PL,4595000,20,0085,058,37.80244858629413,-122.4042109237069,"(37.80244858629413, -122.4042109237069)",,,,,
01/25/2024 10:51:34 AM,02/06/2024 12:54:07 PM,01/25/2024 10:51:34 AM,Construction - Private,StreetSpaceRequest,DBI,JJ Construction Inc,(650) 862-6267,24-44-244982,2,02/08/2024,08/08/2024,8:00,18:00,8AM - 6PM - Mon - Sat,N,305689,N,CLAY ST: SCOTT ST to DIVISADERO ST (2800 - 2899),2814 CLAY ST,4115000,20,1002,013,37.79025377851922,-122.43992330656275,"(37.79025377851922, -122.43992330656275)",,,,,
04/15/2024 11:26:12 AM,,04/15/2024 11:26:12 AM,Construction - City Agency,Web Page,BSM Construction,SFDPW Cement Shop RJ,,1019549,2,04/19/2024,05/20/2024,7:00,16:00,7AM - 4PM - Mon - Fri,N,311378,N,03RD ST: SOUTH PARK to VARNEY PL (548 - 586),500-599 03rd Street,177000,20,,,37.78052746415026,-122.39484820726192,"(37.78052746415026, -122.39484820726192)",,,,,
04/03/2024 08:19:30 AM,04/05/2024 04:20:52 PM,04/03/2024 08:19:30 AM,Construction - Private,DBI,,American Standard Roofing Inc,4156710203,202404029142,2,04/09/2024,05/06/2024,8:00,17:00,8AM - 5PM - Mon - Sat,N,310512,B,23RD ST: NOE ST to CASTRO ST (4000 - 4099),4067 23RD ST,1282000,20,3655,036,37.752701701438234,-122.43332191920078,"(37.752701701438234, -122.43332191920078)",,,,,
04/15/2024 10:44:41 AM,,04/15/2024 10:44:41 AM,Construction - Private,StreetSpaceRequest,DBI,Reliable Construction,415-279-5705,24-36-249969,2,04/22/2024,06/22/2024,7:00,18:00,7AM - 6PM - Mon - Sat,N,311374,W,42ND AVE: ULLOA ST to VICENTE ST (2500 - 2599),2547 42ND AVE,1945000,20,2443,006B,37.73919028027473,-122.50046668894964,"(37.73919028027473, -122.50046668894964)",,,,,
03/06/2024 10:40:57 AM,03/06/2024 03:18:52 PM,03/06/2024 10:40:57 AM,Construction - Private,StreetSpaceRequest,DBI,CH Burnham Inc,(415) 407-4036,24-18-247371,2,03/20/2024,09/20/2024,7:00,17:00,7AM - 5PM - Mon - Fri,N,308485,N,CESAR CHAVEZ ST: DOLORES ST to CHURCH ST (3800 - 3899),3880 CESAR CHAVEZ ST,2492000,20,6566,021,37.74797305615494,-122.42655129196898,"(37.74797305615494, -122.42655129196898)",,,,,
04/10/2024 09:23:36 AM,04/12/2024 04:04:02 PM,04/10/2024 09:23:36 AM,Construction - Private,StreetSpaceRequest,DBI,Nibbi Brothers,(415) 513-3529,24-50-249651,8,04/16/2024,06/16/2024,6:00,18:00,6AM - 6PM - Mon - Sat,N,311025,W,06TH AVE: CLEMENT ST to GEARY BLVD (300 - 399),4200 GEARY BLVD,316000,140,1438,053,37.78138175468346,-122.4646397171624,"(37.78138175468346, -122.4646397171624)",,,,,
03/18/2024 11:27:40 AM,04/03/2024 11:35:46 AM,03/18/2024 11:27:40 AM,Construction - Private,StreetSpaceRequest,DBI,BrightView Landscape Development,925-580-2661,24-36-247836,3,03/25/2024,05/25/2024,7:00,18:00,7AM - 6PM - Mon - Sat,N,309382,W,12TH ST: STEVENSON ST to MISSION ST \ OTIS ST \ SOUTH VAN NESS AVE (40 - 99),70 12TH ST,541000,40,3505,009,37.7733496752535,-122.41953010194834,"(37.7733496752535, -122.41953010194834)",,,,,
03/22/2024 10:28:50 AM,04/08/2024 12:55:32 PM,03/22/2024 10:28:50 AM,Construction - Private,StreetSpaceRequest,DBI,Modernscapes SF,(415) 802-3016,24-43-248510,2,04/07/2024,05/07/2024,7:00,17:00,7AM - 5PM - Mon - Sat,N,309746,N,BUSH ST: BAKER ST to LYON ST (2800 - 2899),2868 BUSH ST,3459000,20,1047,018,37.78589270962844,-122.44457019627083,"(37.78589270962844, -122.44457019627083)",,,,,
03/11/2024 10:46:21 AM,03/27/2024 08:07:53 AM,03/11/2024 10:46:21 AM,Construction - Private,StreetSpaceRequest,DBI,Robert Bernhard Coatings,415-355-9180,24-5-247708,6,03/18/2024,05/18/2024,7:00,17:00,7AM - 5PM - Mon - Fri,N,308851,E,BRODERICK ST: EDDY ST to ELLIS ST (1100 - 1199),1180 BRODERICK ST,3198000,100,1126,038,37.78105044125759,-122.44054370505931,"(37.78105044125759, -122.44054370505931)",,,,,
04/05/2024 09:57:09 AM,04/15/2024 10:32:50 AM,04/05/2024 09:57:09 AM,Construction - Private,StreetSpaceRequest,DBI,CertaPro Painters of San Francisco,415-661-8400,24-26-248948,2,04/15/2024,05/15/2024,7:00,17:00,7AM - 5PM - Mon - Fri,N,310763,N,ALVARADO ST: DOUGLASS ST to HOFFMAN AVE (800 - 899),836 ALVARADO ST,2230000,20,2775,019,37.753589894206605,-122.44008290589419,"(37.753589894206605, -122.44008290589419)",,,,,
04/10/2024 01:06:00 PM,04/26/2024 12:43:24 PM,04/10/2024 01:06:00 PM,Construction - Private,StreetSpaceRequest,DBI,Cook Construction,(415) 418-0448,24-56-249211,2,04/24/2024,10/24/2024,7:00,17:00,7AM - 5PM - Mon - Fri,N,311076,N,19TH ST: LAMSON LN to SEWARD ST (4552 - 4599),4570 19TH ST,990000,25,2700,016,37.75923369252041,-122.44044623956556,"(37.75923369252041, -122.44044623956556)",,,,,
03/28/2024 02:48:04 PM,04/07/2024 06:29:18 PM,03/28/2024 02:48:04 PM,Construction - Private,StreetSpaceRequest,DBI,Skycore Construction,510-305-8318,24-36-248912,2,04/08/2024,05/08/2024,7:00,18:00,7AM - 6PM - Mon - Sat,N,310243,N,BUSH ST: LAGUNA ST to BUCHANAN ST (1900 - 1999),1940 BUSH ST,3449000,20,0662,055,37.78783726298729,-122.42930965823648,"(37.78783726298729, -122.42930965823648)",,,,,
02/09/2024 12:24:16 PM,02/12/2024 01:39:53 PM,02/09/2024 12:24:16 PM,Construction - Private,StreetSpaceRequest,DBI,McNulty construction,4153518665,24-8-245894,2,02/26/2024,07/26/2024,7:00,17:30,7AM - 5:30PM - Mon - Sat,N,306770,W,05TH AVE: CORNWALL ST to CLEMENT ST (200 - 299),253 05TH AVE,278000,20,1428,011,37.7838070869435,-122.4637388235672,"(37.7838070869435, -122.4637388235672)",,,,,
03/22/2024 10:29:17 AM,04/08/2024 12:55:32 PM,03/22/2024 10:29:17 AM,Construction - Private,StreetSpaceRequest,DBI,Modernscapes SF,(415) 802-3016,24-43-248510,2,04/07/2024,05/07/2024,7:00,17:00,7AM - 5PM - Mon - Sat,N,309747,N,BUSH ST: BAKER ST to LYON ST (2800 - 2899),2868 BUSH ST,3459000,20,1047,018,37.78589270962844,-122.44457019627083,"(37.78589270962844, -122.44457019627083)",,,,,
03/26/2024 07:29:33 AM,03/27/2024 08:51:39 AM,03/26/2024 07:29:33 AM,Construction - Private,StreetSpaceRequest,DBI,"Ward-Tek, Inc.",5105040568,24-54-248542,2,04/01/2024,08/01/2024,7:00,18:00,7AM - 6PM - Mon - Fri,N,309925,E,BUCHANAN ST: FELL ST to LINDEN ST (600 - 647),606 BUCHANAN ST,3330000,19,0819,061,37.77552449462836,-122.42753566992128,"(37.77552449462836, -122.42753566992128)",,,,,
01/29/2024 11:13:04 AM,02/08/2024 12:37:47 PM,01/29/2024 11:13:04 AM,Construction - Private,StreetSpaceRequest,DBI,CS Construction Co.,(415) 235-7918,24-35-244929,2,02/12/2024,08/12/2024,7:00,18:00,7AM - 6PM - Mon - Sat,N,305881,W,35TH AVE: TARAVAL ST to ULLOA ST (2400 - 2499),2471 35TH AVE,1781000,24,2390,013A,37.740971988745464,-122.4930728665112,"(37.740971988745464, -122.4930728665112)",,,,,
03/05/2024 03:27:40 PM,04/01/2024 06:23:52 PM,03/05/2024 03:27:40 PM,Construction - Private,StreetSpaceRequest,DBI,"E & E General Builder, Inc.",5107666134,24-27-247242,2,03/12/2024,05/12/2024,7:00,18:00,7AM - 6PM - Mon - Sat,N,308419,W,BAKER ST: SUTTER ST to BUSH ST (1500 - 1599),1546 BAKER ST,2618000,26,1053,022,37.785484597371145,-122.44315142649455,"(37.785484597371145, -122.44315142649455)",,,,,
03/26/2024 12:59:22 PM,04/02/2024 01:41:04 PM,03/26/2024 12:59:22 PM,Construction - Private,StreetSpaceRequest,DBI,Advance Energy Construction,415-969-0845,24-11-248719,2,04/01/2024,06/01/2024,8:00,18:00,8AM - 6PM - Mon - Sat,N,310012,S,20TH ST: SOUTH VAN NESS AVE to CAPP ST (3400 - 3449),3421 20TH ST,1054000,20,3610,049,37.75850252626963,-122.4174776341624,"(37.75850252626963, -122.4174776341624)",,,,,
04/05/2024 11:09:33 AM,04/08/2024 02:35:49 PM,04/05/2024 11:09:33 AM,Construction - Private,StreetSpaceRequest,DBI,Seismic Retrofitters Inc.,4158224200,24-37-249296,2,04/12/2024,06/12/2024,7:00,17:00,7AM - 5PM - Mon - Sat,N,310785,W,46TH AVE: BALBOA ST to CABRILLO ST (700 - 799),723 46TH AVE,2018000,24,1598,003,37.77476962364102,-122.5072498592788,"(37.77476962364102, -122.5072498592788)",,,,,
02/29/2024 01:23:15 PM,01/01/1900 12:00:00 AM,02/29/2024 01:23:15 PM,Construction - Private,StreetSpaceRequest,DBI,Doherty Restoration,415-695-1495,24-34-247035,2,03/11/2024,05/11/2024,7:00,18:00,7AM - 6PM - Mon - Sat,N,308071,N,ALMA ST: SHRADER ST to STANYAN ST (200 - 299),246 ALMA ST,2205000,20,1282,051,37.76312441245565,-122.45172182968456,"(37.76312441245565, -122.45172182968456)",,,,,
02/29/2024 11:40:32 AM,03/19/2024 01:46:50 PM,02/29/2024 11:40:32 AM,Construction - Private,StreetSpaceRequest,DBI,Hive Builds Inc,(415) 516-5064,24-32-247020,2,03/14/2024,06/14/2024,7:00,18:00,7AM - 6PM - Mon - Sat,N,308058,W,CLAYTON ST: FREDERICK ST to CARL ST (800 - 849),805 CLAYTON ST,4134000,20,1268,002,37.76677263391603,-122.44826138835927,"(37.76677263391603, -122.44826138835927)",,,,,
04/17/2024 03:59:46 PM,04/02/2021 03:11:46 PM,04/17/2024 03:59:46 PM,Construction - Private,StreetSpaceRequest,DBI,Firelectric,415-971-8528,",0",2,04/23/2024,05/23/2024,8:00,17:00,8AM - 5PM - Mon - Fri,N,311611,B,19TH AVE: CLEMENT ST to GEARY BLVD (300 - 399),375 19TH AVE,904000,20,rto-m,972,37.7813447717484,-122.47837419221302,"(37.7813447717484, -122.47837419221302)",,,,,
03/20/2024 01:09:03 PM,04/01/2024 04:09:29 PM,03/20/2024 01:09:03 PM,Construction - Private,StreetSpaceRequest,DBI,Design Line Construction Inc,415-647-1373,24-13-248177,2,04/03/2024,10/03/2024,7:00,18:00,7AM - 6PM - Mon - Sat,N,309583,S,CLAY ST: LOCUST ST to SPRUCE ST (3600 - 3699),3675 CLAY ST,4123000,25,1011,022,37.78799740903145,-122.4532367900143,"(37.78799740903145, -122.4532367900143)",,,,,
04/26/2024 02:57:50 PM,01/01/1900 12:00:00 AM,04/26/2024 02:57:50 PM,Construction - Private,StreetSpaceRequest,DBI,Hon's Construction Inc.,4153991188,24-7-250828,2,05/10/2024,08/10/2024,8:30,17:00,8:30AM - 5PM - Mon - Fri,N,312360,S,CHESTNUT ST: OCTAVIA ST to LAGUNA ST (1600 - 1699),1635 CHESTNUT ST,3973000,20,0495,046,37.80129397246279,-122.43023705113131,"(37.80129397246279, -122.43023705113131)",,,,,
03/19/2024 12:49:17 PM,04/02/2021 03:11:46 PM,03/19/2024 12:49:17 PM,Construction - Private,StreetSpaceRequest,DBI,Build 33 Inc,408-898-4833,",0",2,04/01/2024,06/01/2024,8:00,18:00,8AM - 6PM - Mon - Sat,N,309490,B,CLAY ST: PIERCE ST to SCOTT ST (2700 - 2799),2727 CLAY ST,4114000,28,rto-m,972,37.79018688896743,-122.4383155722844,"(37.79018688896743, -122.4383155722844)",,,,,
04/12/2024 09:28:54 AM,04/19/2024 10:41:59 AM,04/12/2024 09:28:54 AM,Construction - Private,DBI,,Westco Roofing Co. Inc.,5105335270,202403127657,2,04/22/2024,05/22/2024,7:00,17:00,7AM - 5PM - Mon - Fri,N,311231,B,BONVIEW ST: START: 100-199 BLOCK to EUGENIA AVE (100 - 199),192 BONVIEW ST,3013000,20,5619,033,37.7410098207442,-122.41836948170092,"(37.7410098207442, -122.41836948170092)",,,,,
03/18/2024 03:26:01 PM,03/19/2024 11:35:33 AM,03/18/2024 03:26:01 PM,Construction - Private,StreetSpaceRequest,DBI,Owner,(415) 656-6646,24-43-248208,2,03/25/2024,05/25/2024,7:00,18:00,7AM - 6PM - Mon - Sat,N,309420,E,27TH AVE: ANZA ST to BALBOA ST (600 - 699),634 27TH AVE,1548000,20,1569,028A,37.777392291401085,-122.48636161302802,"(37.777392291401085, -122.48636161302802)",,,,,
04/08/2024 02:29:39 PM,04/19/2024 08:41:55 AM,04/08/2024 02:29:39 PM,Construction - Private,StreetSpaceRequest,DBI,Christopher Wells Construction,4156561220,24-54-249422,2,04/22/2024,05/22/2024,7:00,17:00,7AM - 5PM - Mon - Fri,N,310880,S,CALIFORNIA ST: JONES ST to LEAVENWORTH ST (1200 - 1299),1255 CALIFORNIA ST,3544000,20,0252,026,37.79099449937032,-122.41498459140173,"(37.79099449937032, -122.41498459140173)",,,,,
02/20/2024 03:19:20 PM,03/19/2024 11:51:21 AM,02/20/2024 03:19:20 PM,Construction - Private,StreetSpaceRequest,DBI,Centric General Contractors,415-554-0350,24-4-246395,7,03/19/2024,09/19/2024,7:00,17:00,7AM - 5PM - Mon - Fri,N,307379,N,BROADWAY: OCTAVIA ST to LAGUNA ST (1900 - 1999),1940 BROADWAY,3174000,120,0567C,101,37.79500026320473,-122.42916688135885,"(37.79500026320473, -122.42916688135885)",,,,,
01/23/2024 03:14:41 PM,02/06/2024 04:57:35 PM,01/23/2024 03:14:41 PM,Construction - Private,StreetSpaceRequest,DBI,Owner,415-812-2396,24-29-244878,3,02/09/2024,08/09/2024,7:00,17:00,7AM - 5PM - Mon - Sat,N,305551,N,26TH ST: NOE ST to CASTRO ST (4100 - 4199),4148 26TH ST,1538000,30,6554,011,37.74840651127695,-122.43267292362641,"(37.74840651127695, -122.43267292362641)",,,,,
02/07/2024 08:07:13 AM,02/07/2024 08:07:35 AM,02/07/2024 08:07:13 AM,Construction - Private,StreetSpaceRequest,DBI,Cahill Contractors,(415) 986-0600,23ADS-00070,5,11/27/2023,05/27/2024,7:00,18:00,7AM - 6PM - Mon - Sat,N,306492,S,CLAY ST: POLK ST to VAN NESS AVE (1700 - 1799),1755 CLAY ST,4106000,80,0622,013,37.79205977642046,-122.42214706049627,"(37.79205977642046, -122.42214706049627)",,,,,
01/11/2024 08:11:54 AM,04/26/2024 10:59:08 AM,01/11/2024 08:11:54 AM,Construction - Private,StreetSpaceRequest,DBI,Jeff King & Company,4152215012,24-37-244045,2,01/22/2024,05/22/2024,7:00,17:00,7AM - 5PM - Mon - Fri,N,304819,E,17TH AVE: START: 1-99 BLOCK to LAKE ST (1 - 99),24 17TH AVE,749000,20,1342,015,37.78665718219011,-122.47628551207832,"(37.78665718219011, -122.47628551207832)",,,,,
04/04/2024 08:24:41 AM,04/19/2024 09:46:31 AM,04/04/2024 08:24:41 AM,Construction - Private,StreetSpaceRequest,DBI,Lemus Construction Co,4155724741,24-36-249282,2,04/11/2024,05/11/2024,7:00,18:00,7AM - 6PM - Mon - Sat,N,310594,E,06TH AVE: CLEMENT ST to GEARY BLVD (300 - 399),378 06TH AVE,316000,20,1437,025,37.78158275754722,-122.46399547612167,"(37.78158275754722, -122.46399547612167)",,,,,
03/06/2024 02:47:37 PM,03/16/2024 07:27:33 AM,03/06/2024 02:47:37 PM,Construction - Private,StreetSpaceRequest,DBI,"PJD CONSTRUCTION, INC.",4152183031,24-16-247321,2,03/13/2024,05/13/2024,7:00,18:00,7AM - 6PM - Mon - Sat,N,308533,E,CLAYTON ST: CARL ST to PARNASSUS AVE (834 - 899),893 CLAYTON ST,4135000,24,1271,010,37.76529685651253,-122.4479623224459,"(37.76529685651253, -122.4479623224459)",,,,,
03/18/2024 03:56:31 PM,03/28/2024 07:37:36 PM,03/18/2024 03:56:31 PM,Construction - Private,StreetSpaceRequest,DBI,Homowner,3478459825,24-23-248127,2,04/01/2024,07/01/2024,7:00,18:00,7AM - 6PM - Mon - Sat,N,309430,E,CLAYTON ST: OAK ST to PAGE ST (400 - 499),414 CLAYTON ST,4130000,20,1224,020,37.77116263798432,-122.44854879902987,"(37.77116263798432, -122.44854879902987)",,,,,
03/27/2024 02:13:14 PM,04/19/2024 11:43:02 AM,03/27/2024 02:13:14 PM,Construction - Private,StreetSpaceRequest,DBI,Gil construction,6509927800,24-58-248406,2,04/23/2024,05/23/2024,7:00,18:00,7AM - 6PM - Mon - Sat,N,310123,N,23RD ST: NOE ST to CASTRO ST (4000 - 4099),4074 23RD ST,1282000,20,3624,021,37.75317317670156,-122.43362985175204,"(37.75317317670156, -122.43362985175204)",,,,,
04/10/2024 07:08:21 AM,04/12/2024 09:35:55 AM,04/10/2024 07:08:21 AM,Construction - Private,StreetSpaceRequest,DBI,keaveney construction,415-225-0614,24-5-249601,2,04/23/2024,08/23/2024,7:00,18:00,7AM - 6PM - Mon - Sat,N,311010,W,17TH AVE: ORTEGA ST to PACHECO ST (1900 - 1999),1921  17TH AVE,764000,20,2117,001E,37.75199873865442,-122.47448844411731,"(37.75199873865442, -122.47448844411731)",,,,,
01/31/2024 03:50:23 PM,02/07/2024 09:15:32 AM,01/31/2024 03:50:23 PM,Construction - Private,StreetSpaceRequest,DBI,O'Shea Co Home Grown Construction,415-349-4233,24-31-245335,2,02/14/2024,08/14/2024,7:00,17:00,7AM - 5PM - Mon - Fri,N,306090,N,CLAIRVIEW CT: PANORAMA DR to FREDELA LN (1 - 49),15 CLAIRVIEW CT,4055000,20,2783,008,37.75440408818846,-122.45097958608348,"(37.75440408818846, -122.45097958608348)",,,,,
03/25/2024 09:06:41 AM,03/27/2024 01:43:39 PM,03/25/2024 09:06:41 AM,Construction - Private,StreetSpaceRequest,DBI,SchwabBuilt Inc,925-684-4595,24-18-247530,3,03/26/2024,05/26/2024,7:00,18:00,7AM - 6PM - Mon - Fri,N,309821,S,BRANNAN ST: ZOE ST to 04TH ST (440 - 499),601 04TH ST,3079000,40,3787,036,37.77917950714856,-122.39450743350294,"(37.77917950714856, -122.39450743350294)",,,,,
03/13/2024 03:15:34 PM,03/22/2024 03:15:28 PM,03/13/2024 03:15:34 PM,Construction - Private,StreetSpaceRequest,DBI,Nob Hill Construction Inc.,6506364088,24-50-246991,3,03/20/2024,09/20/2024,7:00,16:00,7AM - 4PM - Mon - Fri,N,309107,N,CALIFORNIA ST: JONES ST to LEAVENWORTH ST (1200 - 1299),1200 CALIFORNIA ST,3544000,37,0247C,001,37.79131138315517,-122.41492875151923,"(37.79131138315517, -122.41492875151923)",,,,,
02/06/2024 11:05:31 AM,03/04/2024 06:51:49 AM,02/06/2024 11:05:31 AM,Construction - Private,StreetSpaceRequest,DBI,Wei li construction,4153353211,24-18-245505,2,02/15/2024,08/15/2024,7:00,18:00,7AM - 6PM - Mon - Sat,N,306410,N,CALIFORNIA ST: 03RD AVE to 04TH AVE (4100 - 4199),4104 CALIFORNIA ST,3579000,25,1363,021,37.7856112180834,-122.46166640981465,"(37.7856112180834, -122.46166640981465)",,,,,
04/12/2024 09:13:36 AM,04/12/2024 02:09:03 PM,04/12/2024 09:13:36 AM,Construction - Private,StreetSpaceRequest,DBI,Eric Wong dba EKW Construction,4156080645,24-18-249210,2,04/12/2024,06/12/2024,7:00,18:00,7AM - 6PM - Mon - Sat,N,311227,S,CASA WAY: RETIRO WAY to AVILA ST \ MARINA BLVD (2 - 95),79 CASA WAY,3750000,20,0418A,002,37.80562286337829,-122.43950077192616,"(37.80562286337829, -122.43950077192616)",,,,,
04/22/2024 02:46:37 PM,04/29/2024 12:00:00 AM,04/22/2024 02:46:37 PM,Construction - City Agency,Web Page,BSES,SF Public Works,415 695 2134,1024163,2,05/01/2024,05/31/2024,0:00,23:00,12:01AM - 11:59PM - Mon - Sun,Y,311948,W,05TH AVE: START: 1-99 BLOCK to LAKE ST (1 - 99),200 Hyde Street,275000,20,,,37.78770270888199,-122.46368881894692,"(37.78770270888199, -122.46368881894692)",,,,,
04/11/2024 12:51:02 PM,04/12/2024 01:15:22 PM,04/11/2024 12:51:02 PM,Construction - Private,StreetSpaceRequest,DBI,DeBrus Construction Inc,4154101833,24-43-249626,2,04/18/2024,05/18/2024,7:00,18:00,7AM - 6PM - Mon - Sat,N,311162,S,20TH ST: CAPP ST to MISSION ST (3450 - 3499),2415 MISSION ST,1055000,20,3610,029,37.75843724437414,-122.41867830822906,"(37.75843724437414, -122.41867830822906)",,,,,
02/02/2024 02:53:34 PM,02/08/2024 12:11:01 PM,02/02/2024 02:53:34 PM,Construction - Private,StreetSpaceRequest,DBI,Realty Builders inc,6503930208,24-53-245368,2,02/16/2024,05/16/2024,7:00,18:00,7AM - 6PM - Mon - Sat,N,306284,N,CLIFFORD TER: UPPER TER to ASHBURY ST (100 - 199),124 CLIFFORD TER,4207000,25,2617,058,37.76427489817239,-122.44483591754313,"(37.76427489817239, -122.44483591754313)",,,,,
04/22/2024 03:05:36 PM,04/29/2024 12:00:00 AM,04/22/2024 03:05:36 PM,Construction - City Agency,Web Page,BSES,SF Public Works,415 695 2134,1024173,3,05/01/2024,05/31/2024,6:00,20:00,6AM - 8PM - Mon - Sun,N,311956,N,15TH ST: JULIAN AVE to CALEDONIA ST (1656 - 1676),1661 15th Street,653000,40,,,37.76658486602786,-122.4212939632213,"(37.76658486602786, -122.4212939632213)",,,,,
02/15/2024 05:37:54 PM,02/26/2024 04:11:48 PM,02/15/2024 05:37:54 PM,Construction - Private,StreetSpaceRequest,DBI,Houseworks,(415) 825-5024,24-21-246173,2,03/05/2024,09/05/2024,7:00,16:00,7AM - 4PM - Mon - Fri,N,307216,E,ARKANSAS ST: 20TH ST to 22ND ST (500 - 699),565 ARKANSAS ST,2440000,22,4099,048,37.75902225029583,-122.39781854657518,"(37.75902225029583, -122.39781854657518)",,,,,
03/27/2024 11:48:45 AM,04/01/2024 10:40:15 AM,03/27/2024 11:48:45 AM,Construction - Private,StreetSpaceRequest,DBI,Mark Huff Construction Inc,6263240667,24-30-248734,2,04/10/2024,10/10/2024,7:00,18:00,7AM - 6PM - Mon - Sat,N,310082,S,29TH ST: NOE ST to CASTRO ST \ DAY ST (500 - 599),527 29TH ST,1634000,20,6630,041,37.743143179033844,-122.43179641145393,"(37.743143179033844, -122.43179641145393)",,,,,
03/11/2024 11:30:13 AM,,03/11/2024 11:30:13 AM,Construction - Private,StreetSpaceRequest,DBI,LY Green Construction Inc,650-477-4579,24-29-247718,2,03/18/2024,05/18/2024,8:00,17:00,8AM - 5PM - Mon - Sat,N,308860,W,BANKS ST: POWHATTAN AVE to EUGENIA AVE (100 - 199),688 POWHATTAN AVE,2715000,20,5652,001,37.74137590760921,-122.41278429579971,"(37.74137590760921, -122.41278429579971)",,,,,
03/29/2024 12:51:45 PM,04/04/2024 03:08:54 PM,03/29/2024 12:51:45 PM,Construction - Private,StreetSpaceRequest,DBI,Seismic Retrofitters Inc.,4158224200,24-27-248784,2,04/05/2024,06/05/2024,7:00,17:00,7AM - 5PM - Mon - Sat,N,310325,E,15TH AVE: LAKE ST to CALIFORNIA ST (100 - 199),106 15TH AVE,605000,24,1374,038,37.78603439653364,-122.47409558109739,"(37.78603439653364, -122.47409558109739)",,,,,
02/12/2024 07:59:15 PM,02/23/2024 07:49:58 AM,02/12/2024 07:59:15 PM,Construction - Private,StreetSpaceRequest,DBI,San Francisco Design Build,(415)349-0579,24-44-245873,2,02/27/2024,08/27/2024,7:00,18:00,7AM - 6PM - Mon - Sat,N,306930,S,24TH ST: DE HARO ST to RHODE ISLAND ST (2100 - 2199),2121 24TH ST,1324000,20,4259,030,37.753097983677485,-122.4009223353051,"(37.753097983677485, -122.4009223353051)",,,,,
03/14/2024 12:15:56 PM,03/29/2024 04:38:57 PM,03/14/2024 12:15:56 PM,Construction - Private,StreetSpaceRequest,DBI,Aimhigh Scaffolding,415-702-6889,24-13-248006,4,03/20/2024,05/20/2024,7:00,18:00,7AM - 6PM - Mon - Sat,N,309177,N,14TH ST: MISSION ST to WOODWARD ST (300 - 329),320 14TH ST,585000,60,3532,012A,37.768460282823696,-122.42060782559378,"(37.768460282823696, -122.42060782559378)",,,,,
04/22/2024 03:07:16 PM,04/29/2024 12:00:00 AM,04/22/2024 03:07:16 PM,Construction - City Agency,Web Page,BSES,SF Public Works,415 695 2134,1024175,3,05/01/2024,05/31/2024,6:00,20:00,6AM - 8PM - Mon - Sun,N,311957,N,06TH ST: MINNA ST to NATOMA ST (132 - 165),160 6th Street,330000,40,,,37.78034869248314,-122.40792610314736,"(37.78034869248314, -122.40792610314736)",,,,,
04/22/2024 02:38:48 PM,04/29/2024 12:00:00 AM,04/22/2024 02:38:48 PM,Construction - City Agency,Web Page,BSES,SF Public Works,415 695 2134,1024151,3,05/01/2024,05/31/2024,6:00,20:00,6AM - 8PM - Mon - Sun,N,311943,N,14TH ST: WOODWARD ST to JULIAN AVE (330 - 360),344 14th Street,586000,40,,,37.768212525291055,-122.42099324892402,"(37.768212525291055, -122.42099324892402)",,,,,
04/08/2024 08:51:20 AM,04/19/2024 09:54:15 AM,04/08/2024 08:51:20 AM,Construction - Private,StreetSpaceRequest,DBI,Sonoma Build Group,4158260606,24-7-249184,2,04/15/2024,06/15/2024,7:00,18:00,7AM - 6PM - Mon - Sat,N,310827,S,CLAY ST: STEINER ST to PIERCE ST (2600 - 2699),2655 CLAY ST,4113000,20,0631,031,37.79012388444598,-122.43670518808182,"(37.79012388444598, -122.43670518808182)",,,,,
04/11/2024 12:44:42 PM,04/12/2024 02:28:47 PM,04/11/2024 12:44:42 PM,Construction - Private,StreetSpaceRequest,DBI,"McMahon Construction, LLC",(415)846-0242,24-39-249757,2,04/12/2024,10/12/2024,7:00,18:00,7AM - 6PM - Mon - Sat,N,311158,W,06TH AVE: IRVING ST to JUDAH ST (1300 - 1399),100 JUDAH ST,323000,20,1761,019,37.762446944824376,-122.46326663839618,"(37.762446944824376, -122.46326663839618)",,,,,
04/26/2024 12:13:33 PM,01/01/1900 12:00:00 AM,04/26/2024 12:13:33 PM,Construction - Private,StreetSpaceRequest,DBI,UFC Painting,(415) 792-7113,24-45-250801,2,05/02/2024,06/02/2024,7:00,18:00,7AM - 6PM - Mon - Sat,N,312332,E,COLE ST: BEULAH ST to FREDERICK ST (730 - 799),763 COLE ST,4241000,20,1261,078,37.76719696390523,-122.45024007904053,"(37.76719696390523, -122.45024007904053)",,,,,
04/15/2024 11:03:58 AM,04/18/2024 08:28:30 AM,04/15/2024 11:03:58 AM,Construction - Private,StreetSpaceRequest,DBI,Axis Construction,510-732-6111,24-22-249971,2,04/26/2024,05/26/2024,7:00,18:00,7AM - 6PM - Mon - Fri,N,311376,N,CLARA ST: 05TH ST to 06TH ST (200 - 299),260 CLARA ST,4059000,20,3753,169,37.77842587286529,-122.40396764349164,"(37.77842587286529, -122.40396764349164)",,,,,
03/04/2024 02:02:40 PM,03/10/2024 06:49:01 PM,03/04/2024 02:02:40 PM,Construction - Private,StreetSpaceRequest,DBI,Xteam Design & Construction,(949) 300-3328,24-38-246887,2,03/09/2024,06/09/2024,8:00,18:00,8AM - 6PM - Mon - Sat,N,308283,S,24TH ST: SANCHEZ ST to NOE ST (3900 - 3999),3965 24TH ST,1361000,20,6508,030,37.75123197223356,-122.43104609305077,"(37.75123197223356, -122.43104609305077)",,,,,
03/15/2024 08:04:35 AM,03/18/2024 02:19:15 PM,03/15/2024 08:04:35 AM,Construction - Private,StreetSpaceRequest,DBI,O'Conaire Construction Inc,415-871-4480,24-49-247875,2,03/27/2024,09/27/2024,7:00,18:00,7AM - 6PM - Mon - Sat,N,309220,W,48TH AVE: LAWTON ST to MORAGA ST (1600 - 1699),4201 LAWTON ST,2070000,20,1895,001,37.7564246482113,-122.5080351014373,"(37.7564246482113, -122.5080351014373)",,,,,
04/26/2024 12:21:22 PM,,04/26/2024 12:21:22 PM,Construction - Private,StreetSpaceRequest,DBI,UFC Painting,(415) 792-7113,24-45-250801,2,05/02/2024,06/02/2024,7:00,18:00,7AM - 6PM - Mon - Sat,N,312337,E,COLE ST: BEULAH ST to FREDERICK ST (730 - 799),764 COLE ST,4241000,20,1261,078,37.76719696390523,-122.45024007904053,"(37.76719696390523, -122.45024007904053)",,,,,
03/28/2024 11:05:45 AM,03/29/2024 02:57:35 PM,03/28/2024 11:05:45 AM,Construction - Private,StreetSpaceRequest,DBI,Russ Murphy Construction,(415) 726-3063,24-15-248881,2,04/03/2024,06/03/2024,8:00,16:30,8AM - 4:30PM - Mon - Fri,N,310205,E,ANDERSON ST: POWHATTAN AVE to EUGENIA AVE (100 - 199),175 ANDERSON ST,2268000,20,5649,018,37.74059255514346,-122.41496119922134,"(37.74059255514346, -122.41496119922134)",,,,,
02/15/2024 05:43:41 PM,03/07/2024 03:54:09 PM,02/15/2024 05:43:41 PM,Construction - Private,StreetSpaceRequest,DBI,Houseworks,(415) 825-5024,24-1-246181,3,03/10/2024,05/10/2024,7:00,16:00,7AM - 4PM - Mon - Fri,N,307220,E,CASELLI AVE: DANVERS ST to 19TH ST \ MONO ST (200 - 299),243 CASELLI AVE,3758000,40,2702,014,37.75910207486328,-122.44354463816161,"(37.75910207486328, -122.44354463816161)",,,,,
01/31/2024 10:20:40 AM,02/09/2024 07:40:11 AM,01/31/2024 10:20:40 AM,Construction - Private,StreetSpaceRequest,DBI,Perez Construction,415-887-2204,24-8-245112,2,02/09/2024,07/09/2024,7:00,18:00,7AM - 6PM - Mon - Sat,N,306052,N,27TH ST: GUERRERO ST to DOLORES ST (100 - 199),178 27TH ST,1564000,20,6577,024,37.74731275161613,-122.42417750358722,"(37.74731275161613, -122.42417750358722)",,,,,
02/08/2024 08:13:05 AM,03/02/2024 12:36:21 PM,02/08/2024 08:13:05 AM,Construction - Private,StreetSpaceRequest,DBI,Art Of Construction,650 826-0293,24-4-245653,2,02/28/2024,08/28/2024,7:00,18:00,7AM - 6PM - Mon - Sun,N,306607,E,06TH AVE: IRVING ST to JUDAH ST (1300 - 1399),1350 06TH AVE,323000,24,1760,038,37.76322826674286,-122.46270655831971,"(37.76322826674286, -122.46270655831971)",,,,,
04/09/2024 09:59:21 AM,04/12/2024 09:41:39 AM,04/09/2024 09:59:21 AM,Construction - Private,StreetSpaceRequest,DBI,DEFCO,(415)608-4610,24-28-249267,2,04/15/2024,05/15/2024,7:00,18:00,7AM - 6PM - Mon - Sat,N,310941,S,CLIPPER ST: CASTRO ST to DIAMOND ST (400 - 499),459  CLIPPER ST,4215000,20,6555,038A,37.74856939031051,-122.43519291027435,"(37.74856939031051, -122.43519291027435)",,,,,
04/12/2024 01:25:29 PM,04/14/2024 03:30:15 PM,04/12/2024 01:25:29 PM,Construction - Private,StreetSpaceRequest,DBI,Sal DeGuarda Concrete,4157418531,24-57-249803,2,04/19/2024,05/19/2024,7:00,18:00,7AM - 6PM - Mon - Sat,N,311284,N,20TH ST: NOE ST to HARTFORD ST (4100 - 4149),4138 20TH ST,1065000,20,3602,104,37.75798419052856,-122.43346578040662,"(37.75798419052856, -122.43346578040662)",,,,,
03/07/2024 04:17:17 PM,,03/07/2024 04:17:17 PM,Construction - Private,StreetSpaceRequest,DBI,Century Bay Builders,888-660-8574,24-14-247541,2,03/18/2024,05/18/2024,7:00,18:00,7AM - 6PM - Mon - Sat,N,308678,E,48TH AVE: ORTEGA ST to PACHECO ST (1900 - 1999),1962 48TH AVE,2073000,20,2087,029,37.74984704573262,-122.50700378168341,"(37.74984704573262, -122.50700378168341)",,,,,
04/22/2024 11:19:42 AM,04/25/2024 01:08:26 PM,04/22/2024 11:19:42 AM,Construction - Private,StreetSpaceRequest,DBI,Golden Bay Painting,415-318-0348,24-30-250444,2,04/29/2024,05/29/2024,7:00,18:00,7AM - 6PM - Mon - Fri,N,311911,E,08TH AVE: BALBOA ST to CABRILLO ST (600 - 699),692 08TH AVE,392000,20,1637,034,37.77557938530147,-122.4657637431885,"(37.77557938530147, -122.4657637431885)",,,,,
03/01/2024 07:52:03 AM,03/08/2024 02:14:52 PM,03/01/2024 07:52:03 AM,Construction - Private,StreetSpaceRequest,DBI,Cahill Contractors,(510) 506-1965,24-47-245220,14,03/08/2024,08/08/2024,0:00,23:00,12AM - 11:59PM - Mon - Sun,N,308115,E,43RD AVE: IRVING ST to JUDAH ST (1300 - 1399),1360 43RD AVE,1955000,250,1797,007,37.76138549306299,-122.50223225378458,"(37.76138549306299, -122.50223225378458)",,,,,
04/22/2024 02:44:12 PM,04/29/2024 12:00:00 AM,04/22/2024 02:44:12 PM,Construction - City Agency,Web Page,BSES,SF Public Works,415 695 2134,1024160,3,05/01/2024,05/31/2024,7:00,19:00,7AM - 7PM - Mon - Sun,N,311945,N,26TH ST: HARRISON ST to TREAT AVE \ TREAT WAY (3100 - 3148),3100 26th Street,1515000,40,,,37.74940301446198,-122.41214001906059,"(37.74940301446198, -122.41214001906059)",,,,,
03/06/2024 01:57:22 PM,03/07/2024 09:58:30 AM,03/06/2024 01:57:22 PM,Construction - Private,StreetSpaceRequest,DBI,Bros Collins Woodworking Inc,415-710-7604,24-2-247407,2,03/12/2024,05/12/2024,7:00,18:00,7AM - 6PM - Mon - Sat,N,308519,E,43RD AVE: CABRILLO ST to CHAIN OF LAKES DR \ FULTON ST (800 - 899),838 43RD AVE,1953000,20,1685,007N,37.772799666873766,-122.50322436029302,"(37.772799666873766, -122.50322436029302)",,,,,
03/14/2024 02:09:42 PM,03/15/2024 05:22:05 PM,03/14/2024 02:09:42 PM,Construction - Private,StreetSpaceRequest,DBI,"Dowbuilt, Inc.",+12066333003,24-51-247986,6,03/16/2024,09/16/2024,7:00,17:00,7AM - 5PM - Mon - Fri,N,309192,E,AVILA ST: RICO WAY to CASA WAY \ MARINA BLVD (442 - 499),490 AVILA ST,2573000,100,0418A,028,37.805592592456534,-122.43999520188423,"(37.805592592456534, -122.43999520188423)",,,,,
02/26/2024 11:07:55 AM,02/26/2024 01:07:18 PM,02/26/2024 11:07:55 AM,Construction - Private,StreetSpaceRequest,DBI,SteelCore Builders,4153310525,24-33-246365,3,02/28/2024,05/28/2024,7:00,17:00,7AM - 5PM - Mon - Fri,N,307742,W,CHURCH ST: HERMANN ST to DUBOCE AVE (1 - 99),2 CHURCH ST,4006000,37,0874,008,37.770116282422926,-122.42939536204993,"(37.770116282422926, -122.42939536204993)",,,,,
02/29/2024 03:23:37 PM,03/08/2024 02:16:46 PM,02/29/2024 03:23:37 PM,Construction - Private,StreetSpaceRequest,DBI,Cahill Contractors,(510) 506-1965,24-2-246736,13,03/08/2024,05/08/2024,0:00,23:00,12AM - 11:59PM - Mon - Sun,N,308099,W,42ND AVE: IRVING ST to JUDAH ST (1300 - 1399),1360 43RD AVE,1933000,249,1797,007,37.76138549306299,-122.50223225378458,"(37.76138549306299, -122.50223225378458)",,,,,
03/15/2024 03:51:39 PM,03/18/2024 10:40:37 AM,03/15/2024 03:51:39 PM,Construction - Private,StreetSpaceRequest,DBI,D & Y California LLC,(415) 609-5019,24-59-248078,2,03/21/2024,05/21/2024,8:00,18:00,8AM - 6PM - Mon - Sat,N,309314,W,04TH AVE: GEARY BLVD to ANZA ST (400 - 499),447 04TH AVE,242000,20,1540,009,37.78014169543622,-122.46240004946463,"(37.78014169543622, -122.46240004946463)",,,,,
04/19/2024 08:47:11 AM,04/19/2024 12:04:45 PM,04/19/2024 08:47:11 AM,Construction - Private,StreetSpaceRequest,DBI,House Works,415-825-5024,24-8-250301,2,04/22/2024,05/22/2024,7:00,16:00,7AM - 4PM - Mon - Fri,N,311788,E,CAROLINA ST: 22ND ST to 23RD ST (900 - 1098) -- WEST --,900 CAROLINA ST,3714201,20,4160,083,37.75709764718042,-122.40020393791886,"(37.75709764718042, -122.40020393791886)",,,,,
03/04/2024 11:05:43 AM,03/07/2024 10:11:23 AM,03/04/2024 11:05:43 AM,Construction - Private,StreetSpaceRequest,DBI,RCD BUILDING COMPANY LLC,4155288190,24-10-247166,2,03/11/2024,05/11/2024,7:00,18:00,7AM - 6PM - Mon - Sat,N,308244,N,22ND ST: YORK ST to BRYANT ST (2700 - 2749),2724 22ND ST,1181000,19,4144,017,37.756254243023264,-122.40893578226478,"(37.756254243023264, -122.40893578226478)",,,,,
02/16/2024 11:44:04 AM,03/08/2024 02:42:40 PM,02/16/2024 11:44:04 AM,Construction - Private,StreetSpaceRequest,DBI,Owner,(415) 374-0833,24-12-246333,2,03/11/2024,07/11/2024,7:00,18:00,7AM - 6PM - Mon - Sat,N,307258,N,29TH ST: SANCHEZ ST to NOE ST (400 - 499),460 29TH ST,1633000,20,6620,019,37.74372249209328,-122.43031713663274,"(37.74372249209328, -122.43031713663274)",,,,,
02/21/2024 09:35:50 AM,03/14/2024 11:00:34 AM,02/21/2024 09:35:50 AM,Construction - Private,StreetSpaceRequest,DBI,SLM Development,(650) 288-7399,24-35-246475,3,03/07/2024,05/07/2024,7:00,17:00,7AM - 5PM - Mon - Fri,N,307415,S,BUSH ST: TAYLOR ST to JONES ST (900 - 999),969 BUSH ST,3439000,40,0282,013,37.789325381623684,-122.41307932493692,"(37.789325381623684, -122.41307932493692)",,,,,
02/12/2024 07:53:49 AM,02/22/2024 09:26:19 AM,02/12/2024 07:53:49 AM,Construction - Private,StreetSpaceRequest,DBI,Bay Metro Corp,4157407339,24-7-245921,2,02/26/2024,05/26/2024,8:00,17:00,8AM - 5PM - Mon - Sat,N,306817,E,42ND AVE: PACHECO ST to QUINTARA ST (2000 - 2099),2074 42ND AVE,1940000,20,2161,020,37.74805846498194,-122.50043171775582,"(37.74805846498194, -122.50043171775582)",,,,,
02/29/2024 11:31:59 AM,03/20/2024 04:23:51 PM,02/29/2024 11:31:59 AM,Construction - Private,StreetSpaceRequest,DBI,"Peak General Contractors, Inc.",415-238-4011,24-8-246428,4,03/14/2024,06/14/2024,7:00,17:00,7AM - 5PM - Mon - Fri,N,308054,S,BALBOA ST: 02ND AVE to 03RD AVE (100 - 199),101 BALBOA ST,2646000,65,1642,001,37.77727137938316,-122.4599975393935,"(37.77727137938316, -122.4599975393935)",,,,,
03/04/2024 03:08:32 PM,03/18/2024 12:02:38 PM,03/04/2024 03:08:32 PM,Construction - Private,StreetSpaceRequest,DBI,TeBuilt,(415) 652-3133,24-55-247232,3,03/11/2024,05/11/2024,7:00,17:00,7AM - 5PM - Mon - Fri,N,308296,S,BROADWAY: BUCHANAN ST to WEBSTER ST (2100 - 2199),2121 BROADWAY,3176000,37,0580C,301,37.79457917792199,-122.43245404646827,"(37.79457917792199, -122.43245404646827)",,,,,
03/27/2024 02:10:12 PM,04/19/2024 06:01:00 PM,03/27/2024 02:10:12 PM,Construction - Private,DBI,,Glam Roofing,+1 (415) 877-4430,202403268657,2,04/03/2024,05/31/2024,7:00,18:30,7AM - 6:30PM - Mon - Sat,N,310121,B,25TH ST: SAN JOSE AVE to GUERRERO ST (3600 - 3699),3620 25TH ST,1447000,20,6513,041,37.750620994075554,-122.42186063025332,"(37.750620994075554, -122.42186063025332)",,,,,
03/07/2024 03:44:17 PM,01/01/1900 12:00:00 AM,03/07/2024 03:44:17 PM,Construction - Private,StreetSpaceRequest,DBI,Century Bay Builders,888-660-8574,24-14-247541,2,03/18/2024,05/18/2024,7:00,18:00,7AM - 6PM - Mon - Sat,N,308672,E,48TH AVE: ORTEGA ST to PACHECO ST (1900 - 1999),1962 48TH AVE,2073000,20,2087,029,37.74984704573262,-122.50700378168341,"(37.74984704573262, -122.50700378168341)",,,,,
04/05/2024 07:24:03 AM,04/09/2024 12:22:07 AM,04/05/2024 07:24:03 AM,Construction - Private,StreetSpaceRequest,DBI,Gee Zhang Construction Inc.,(650)460-9928,24-7-249194,2,04/18/2024,07/18/2024,7:00,18:00,7AM - 6PM - Mon - Sat,N,310727,E,31ST AVE: NORIEGA ST to ORTEGA ST (1800 - 1899),1862 31ST AVE,1689000,20,2067,036,37.75251840594991,-122.48891406051669,"(37.75251840594991, -122.48891406051669)",,,,,
02/28/2024 07:23:33 AM,02/29/2024 05:14:23 PM,02/28/2024 07:23:33 AM,Construction - Private,StreetSpaceRequest,DBI,"Magnolia Development, Inc.",510-334-5181,24-36-246840,2,03/12/2024,06/12/2024,7:00,17:00,7AM - 5PM - Mon - Sat,N,307909,E,45TH AVE: IRVING ST to JUDAH ST (1300 - 1399),1352 45TH AVE,1999000,20,1799,028A,37.761342205805676,-122.5045888322955,"(37.761342205805676, -122.5045888322955)",,,,,
02/06/2024 11:02:15 AM,02/16/2024 09:31:31 AM,02/06/2024 11:02:15 AM,Construction - Private,StreetSpaceRequest,DBI,Tri-Star Home Improvement Inc,4157460383,24-32-245525,2,02/21/2024,08/21/2024,7:00,18:00,7AM - 6PM - Mon - Sat,N,306407,N,DAY ST: SANCHEZ ST to NOE ST (300 - 399),320 DAY ST,4621000,25,6631,007,37.74297461750229,-122.42937646901466,"(37.74297461750229, -122.42937646901466)",,,,,
04/15/2024 11:07:10 AM,04/17/2024 03:10:16 PM,04/15/2024 11:07:10 AM,Construction - Private,StreetSpaceRequest,DBI,Angotti &Reilly,415-575--3700,24-37-249957,4,04/22/2024,05/22/2024,7:00,17:00,7AM - 5PM - Mon - Fri,N,311377,W,18TH AVE: GEARY BLVD to ANZA ST (400 - 499),409 18TH AVE,830000,60,1526,001,37.780117188966045,-122.47739184901747,"(37.780117188966045, -122.47739184901747)",,,,,
03/13/2024 02:17:14 PM,03/15/2024 06:18:00 PM,03/13/2024 02:17:14 PM,Construction - Private,StreetSpaceRequest,DBI,"Om Venture Capital, LLC",415-589-1655,24-19-247911,2,03/19/2024,05/19/2024,7:00,18:00,7AM - 6PM - Mon - Sat,N,309095,S,29TH ST: NOE ST to CASTRO ST \ DAY ST (500 - 599),565 29TH ST,1634000,25,6630,033,37.743101379131375,-122.43248609994862,"(37.743101379131375, -122.43248609994862)",,,,,
03/18/2024 11:25:15 AM,04/03/2024 03:02:25 PM,03/18/2024 11:25:15 AM,Construction - Private,StreetSpaceRequest,DBI,Reveal Partners,4156942406,24-21-248050,3,04/01/2024,07/01/2024,7:00,18:00,7AM - 6PM - Mon - Sat,N,309380,W,17TH AVE: START: 1-99 BLOCK to LAKE ST (1 - 99),1600 LAKE ST,749000,40,1341,006A,37.786337639171094,-122.47681091518298,"(37.786337639171094, -122.47681091518298)",,,,,
03/06/2024 10:24:34 AM,03/11/2024 10:28:41 AM,03/06/2024 10:24:34 AM,Construction - Private,StreetSpaceRequest,DBI,Casement Construction,415-819-7938,24-43-247368,2,03/12/2024,05/12/2024,7:00,17:30,7AM - 5:30PM - Mon - Sat,N,308481,E,BROMPTON AVE: CHENERY ST to KERN ST (1 - 39),25 BROMPTON AVE,3226000,18,6744,033,37.73406859414504,-122.434588268096,"(37.73406859414504, -122.434588268096)",,,,,
02/27/2024 01:28:25 PM,03/01/2024 03:04:06 PM,02/27/2024 01:28:25 PM,Construction - Private,StreetSpaceRequest,DBI,MPDC,415 650 1148,24-7-246871,2,03/12/2024,06/12/2024,7:00,17:00,7AM - 5PM - Mon - Sat,N,307878,W,CHENERY ST: RANDALL ST to FAIRMOUNT ST (100 - 199),138 CHENERY ST,3918000,20,6663,004,37.739254400217014,-122.42598887738484,"(37.739254400217014, -122.42598887738484)",,,,,
03/13/2024 07:41:27 AM,03/18/2024 01:22:08 PM,03/13/2024 07:41:27 AM,Construction - Private,StreetSpaceRequest,DBI,Block12 Construction,415-261-4413,24-8-247543,4,03/21/2024,08/21/2024,7:00,18:00,7AM - 6PM - Mon - Sat,N,309021,N,BROADWAY: LAGUNA ST to BUCHANAN ST (2000 - 2099),2040 BROADWAY,3175000,60,0566,030,37.79505485071029,-122.43124198293197,"(37.79505485071029, -122.43124198293197)",,,,,
03/11/2024 11:27:59 AM,01/01/1900 12:00:00 AM,03/11/2024 11:27:59 AM,Construction - Private,StreetSpaceRequest,DBI,LY Green Construction Inc,650-477-4579,24-29-247718,2,03/18/2024,05/18/2024,8:00,17:00,8AM - 5PM - Mon - Sat,N,308859,W,BANKS ST: POWHATTAN AVE to EUGENIA AVE (100 - 199),688 POWHATTAN AVE,2715000,20,5652,001,37.74137590760921,-122.41278429579971,"(37.74137590760921, -122.41278429579971)",,,,,
03/21/2024 12:06:25 PM,03/22/2024 08:39:13 AM,03/21/2024 12:06:25 PM,Construction - Private,StreetSpaceRequest,DBI,Flores General Building,510-907-0134,24-22-248424,2,03/28/2024,05/28/2024,7:00,18:00,7AM - 6PM - Mon - Sat,N,309676,S,BAY ST: GOUGH ST to OCTAVIA ST (1300 - 1399),1331 BAY ST,2787000,20,0472,038,37.80341179763902,-122.42889504944783,"(37.80341179763902, -122.42889504944783)",,,,,
03/07/2024 01:40:14 PM,03/08/2024 02:04:30 PM,03/07/2024 01:40:14 PM,Construction - Private,StreetSpaceRequest,DBI,GNGC Builders Inc.,(415) 913-9837,24-36-247413,2,03/12/2024,06/12/2024,7:00,18:00,7AM - 6PM - Mon - Sat,N,308643,W,10TH AVE: ANZA ST to BALBOA ST (500 - 599),541 10TH AVE,466000,20,1553,008,37.778096537724345,-122.46869674516635,"(37.778096537724345, -122.46869674516635)",,,,,
03/07/2024 02:35:09 PM,03/20/2024 12:03:14 PM,03/07/2024 02:35:09 PM,Construction - Private,StreetSpaceRequest,DBI,"BJLGC, Inc.",415-516-5230,24-28-247527,2,03/13/2024,05/13/2024,7:30,17:00,7:30AM - 5PM - Mon - Fri,N,308656,N,CLAY ST: BAKER ST to LYON ST (3100 - 3199),3168 CLAY ST,4118000,20,0999,018,37.789579862251934,-122.44529959374677,"(37.789579862251934, -122.44529959374677)",,,,,
01/31/2024 11:59:01 AM,03/01/2024 10:30:12 AM,01/31/2024 11:59:01 AM,Construction - Private,StreetSpaceRequest,DBI,Muscio Electric,6503595360,24-3-245312,4,03/04/2024,06/07/2024,7:00,17:00,7AM - 5PM - Mon - Fri,N,306059,N,CAPRA WAY: MALLORCA WAY to PIERCE ST (1 - 99),50 CAPRA WAY,3684000,60,0442A,015,37.802888373851594,-122.43971442197882,"(37.802888373851594, -122.43971442197882)",,,,,
02/06/2024 11:08:27 AM,03/02/2024 09:55:21 AM,02/06/2024 11:08:27 AM,Construction - Private,StreetSpaceRequest,DBI,Nick Nestal,(925)2543401,24-46-245171,2,02/06/2024,07/06/2024,7:00,18:00,7AM - 6PM - Mon - Sat,N,306414,N,06TH ST: TEHAMA ST to CLEMENTINA ST (232 - 269),241 06TH ST,333000,20,3732,078,37.77937471433672,-122.40625835490759,"(37.77937471433672, -122.40625835490759)",,,,,
03/24/2024 09:45:13 AM,04/09/2024 03:31:28 PM,03/24/2024 09:45:13 AM,Construction - Private,StreetSpaceRequest,DBI,GB Group Inc.,9252090799,24-38-248415,7,04/04/2024,08/04/2024,7:00,17:00,7AM - 5PM - Mon - Sun,N,309785,N,CHINA BASIN ST: TERRY A FRANCOIS BLVD to 03RD ST (300 - 499),480 MISSION BAY BLVD NORTH,15024000,120,8720,121,37.77159367617989,-122.38858937940476,"(37.77159367617989, -122.38858937940476)",,,,,
03/08/2024 02:32:22 PM,03/13/2024 09:29:12 AM,03/08/2024 02:32:22 PM,Construction - Private,StreetSpaceRequest,DBI,Jim Fergus Construction,415-606-5932,24-19-247443,2,03/22/2024,06/22/2024,7:00,18:00,7AM - 6PM - Mon - Sat,N,308776,N,17TH ST: DOLORES ST to ABBEY ST (3600 - 3638),394 DOLORES ST,803000,20,3566,010,37.76315493678417,-122.42662910496604,"(37.76315493678417, -122.42662910496604)",,,,,
03/11/2024 01:33:10 PM,03/13/2024 07:04:56 AM,03/11/2024 01:33:10 PM,Construction - Private,StreetSpaceRequest,DBI,WEST COAST PROPERTY MGNT CO,(415) 885-6977,24-14-247744,3,03/18/2024,05/18/2024,8:00,18:00,8AM - 6PM - Mon - Fri,N,308885,N,CHESTNUT ST: VAN NESS AVE to FRANKLIN ST (1300 - 1399),2905 VAN NESS AVE,3970000,40,0479,003,37.80240806240698,-122.42511466183916,"(37.80240806240698, -122.42511466183916)",,,,,
03/13/2024 02:22:56 PM,03/15/2024 06:18:00 PM,03/13/2024 02:22:56 PM,Construction - Private,StreetSpaceRequest,DBI,"Om Venture Capital, LLC",415-589-1655,24-19-247911,2,03/19/2024,05/19/2024,7:00,18:00,7AM - 6PM - Mon - Sat,N,309097,S,29TH ST: NOE ST to CASTRO ST \ DAY ST (500 - 599),565 29TH ST,1634000,25,6630,033,37.743101379131375,-122.43248609994862,"(37.743101379131375, -122.43248609994862)",,,,,
03/11/2024 11:18:20 AM,03/18/2024 11:19:13 AM,03/11/2024 11:18:20 AM,Construction - Private,StreetSpaceRequest,DBI,Edenavow Construction,4153096486,24-0-247715,2,03/18/2024,05/18/2024,7:00,18:00,7AM - 6PM - Mon - Sat,N,308858,W,14TH AVE: LINCOLN WAY to IRVING ST (1200 - 1299),1227 14TH AVE,560000,20,1736,005,37.765098683494735,-122.47210013024215,"(37.765098683494735, -122.47210013024215)",,,,,
03/08/2024 10:47:53 AM,03/13/2024 03:41:10 PM,03/08/2024 10:47:53 AM,Construction - Private,StreetSpaceRequest,DBI,Stonebridge Construction Inc,415-691-1074,24-11-247598,3,03/22/2024,09/22/2024,7:00,18:00,7AM - 6PM - Mon - Sat,N,308724,W,CAPP ST: 24TH ST to 25TH ST (900 - 999),942  CAPP ST,3681000,32,6517,010,37.751531360786956,-122.41757921526504,"(37.751531360786956, -122.41757921526504)",,,,,
03/12/2024 09:12:35 AM,03/13/2024 02:53:49 PM,03/12/2024 09:12:35 AM,Construction - Private,StreetSpaceRequest,DBI,Great Ocean Construction,4158163320,24-22-247706,2,03/26/2024,07/26/2024,7:00,18:00,7AM - 6PM - Mon - Sat,N,308937,W,27TH AVE: SEACLIFF AVE to AUTOMOBILE DR (1 - 55),35 27TH AVE,1541000,20,1308,003,37.78827990992619,-122.4883147750213,"(37.78827990992619, -122.4883147750213)",,,,,
03/15/2024 11:06:43 AM,03/18/2024 10:40:37 AM,03/15/2024 11:06:43 AM,Construction - Private,StreetSpaceRequest,DBI,D & Y California LLC,(415) 609-5019,24-59-248078,2,03/21/2024,05/21/2024,8:00,18:00,8AM - 6PM - Mon - Sat,N,309249,W,04TH AVE: GEARY BLVD to ANZA ST (400 - 499),447 04TH AVE,242000,20,1540,009,37.78014169543622,-122.46240004946463,"(37.78014169543622, -122.46240004946463)",,,,,
03/08/2024 01:46:24 PM,03/13/2024 09:17:47 AM,03/08/2024 01:46:24 PM,Construction - Private,StreetSpaceRequest,DBI,Cabrillo Construction Co Inc,4158102408,24-21-247633,2,03/22/2024,06/22/2024,8:00,17:00,8AM - 5PM - Mon - Fri,N,308752,W,ANDOVER ST: TOMPKINS AVE to HIGHLAND AVE (478 - 505),480 ANDOVER ST,2281000,20,5716,006,37.737234104011314,-122.41685235202009,"(37.737234104011314, -122.41685235202009)",,,,,
11/03/2023 01:51:04 PM,03/26/2024 12:11:58 PM,11/03/2023 01:51:04 PM,Construction - Private,StreetSpaceRequest,DBI,Rod Heisler Construction,4157413535,23-18-240362,7,11/20/2023,05/20/2024,7:00,18:00,7AM - 6PM - Mon - Sat,N,300772,N,15TH ST: UTAH ST to POTRERO AVE (600 - 699),151 POTRERO AVE,639000,124,3919,004,37.7673901007482,-122.40719992302586,"(37.7673901007482, -122.40719992302586)",,,,,
03/28/2024 12:03:54 PM,04/09/2024 12:12:38 PM,03/28/2024 12:03:54 PM,Construction - Private,StreetSpaceRequest,DBI,Sea Point Construction,(415) 750-0542,24-50-248898,2,04/03/2024,06/03/2024,7:00,17:00,7AM - 5PM - Mon - Sat,N,310222,N,25TH ST: DIAMOND ST to DOUGLASS ST (4300 - 4399),4340 25TH ST,1456000,20,6540,016,37.74974271586009,-122.43717872350571,"(37.74974271586009, -122.43717872350571)",,,,,
03/21/2024 03:07:20 PM,04/04/2024 02:53:27 PM,03/21/2024 03:07:20 PM,Construction - Private,StreetSpaceRequest,DBI,Bashland Builders,510-652-5795,24-53-248450,2,04/01/2024,06/01/2024,7:00,17:00,7AM - 5PM - Mon - Fri,N,309703,S,26TH ST: CHURCH ST to SANCHEZ ST (3900 - 3999),3949 26TH ST,1536000,20,6565,039,37.74818845276374,-122.42820905548746,"(37.74818845276374, -122.42820905548746)",,,,,
03/25/2024 03:29:34 PM,04/02/2024 01:15:50 PM,03/25/2024 03:29:34 PM,Construction - Private,StreetSpaceRequest,DBI,Stephenson Painting,(415) 717-6579,24-7-248645,2,04/01/2024,06/01/2024,7:30,17:00,7:30AM - 5PM - Mon - Fri,N,309889,N,CLIFFORD TER: ROOSEVELT WAY to UPPER TER (1 - 99),70 CLIFFORD TER,4206000,20,2618A,023,37.76411289821208,-122.44394351090713,"(37.76411289821208, -122.44394351090713)",,,,,
12/02/2016 04:41:48 PM,12/02/2016 04:41:52 PM,12/02/2016 04:41:48 PM,Construction - Private,StreetSpaceRequest,DBI,E F GOMEZ,4158224130,14IE-0917,2,12/05/2016,11/05/2031,7:00,18:00,7AM - 6PM - Mon - Sat,N,77998,N,48TH AVE: JUDAH ST to KIRKHAM ST (1400 - 1499),1433 48TH AVE,2068000,24,1805,006,37.75965831271745,-122.50834941845552,"(37.75965831271745, -122.50834941845552)",,,,,
03/25/2024 02:19:59 PM,03/25/2024 06:24:29 PM,03/25/2024 02:19:59 PM,Construction - Private,StreetSpaceRequest,DBI,D3 CONSTRUCTION,(415) 626-8300,24-4-248630,2,04/01/2024,06/01/2024,7:00,18:00,7AM - 6PM - Mon - Sat,N,309876,W,38TH AVE: SHORE VIEW AVE to UNNAMED 010 (442 - 468),447 38TH AVE,1845000,20,1470,009,37.78045666177629,-122.49906278277763,"(37.78045666177629, -122.49906278277763)",,,,,
04/03/2024 01:15:28 PM,04/02/2021 03:11:46 PM,04/03/2024 01:15:28 PM,Construction - Private,StreetSpaceRequest,DBI,Aim High Scaffolding,415-702-6889,",0",2,04/09/2024,05/09/2024,7:00,18:00,7AM - 6PM - Mon - Sat,N,310538,B,19TH AVE: CLEMENT ST to GEARY BLVD (300 - 399),303 19TH AVE,904000,20,rto-m,972,37.7813447717484,-122.47837419221302,"(37.7813447717484, -122.47837419221302)",,,,,
03/05/2024 03:32:24 PM,03/06/2024 02:17:26 PM,03/05/2024 03:32:24 PM,Construction - Private,StreetSpaceRequest,DBI,Great Ocean Construction,4158163320,24-23-247164,2,03/13/2024,07/13/2024,7:00,18:00,7AM - 6PM - Mon - Sat,N,308424,E,10TH AVE: CLEMENT ST to GEARY BLVD (300 - 399),370 10TH AVE,464000,20,1441,021,37.78145792110087,-122.46828145660929,"(37.78145792110087, -122.46828145660929)",,,,,
01/24/2024 08:24:06 AM,02/27/2024 02:30:02 PM,01/24/2024 08:24:06 AM,Construction - Private,StreetSpaceRequest,DBI,Perez Construction,(415) 574-7080,24-20-244883,2,02/06/2024,08/06/2024,7:00,18:00,7AM - 6PM - Mon - Sat,N,305569,E,15TH AVE: IRVING ST to JUDAH ST (1300 - 1399),1358 15TH AVE,614000,20,1769,031,37.762666262691276,-122.4723716039425,"(37.762666262691276, -122.4723716039425)",,,,,
04/18/2024 02:56:28 PM,,04/18/2024 02:56:28 PM,Construction - City Agency,Web Page,BSM Construction,SFDPW Cement Shop RJ,4156952134,1022046,2,04/22/2024,05/22/2024,7:00,16:00,7AM - 4PM - Mon - Fri,N,311735,N,BARNEVELD AVE: GAVEN ST to SWEENY ST (750 - 799),700-899 Barneveld Ave,2731000,20,,,37.73343093163168,-122.40741469748464,"(37.73343093163168, -122.40741469748464)",,,,,
03/25/2024 04:23:23 PM,04/09/2024 11:50:10 AM,03/25/2024 04:23:23 PM,Construction - Private,StreetSpaceRequest,DBI,21ST CENTURY HOME IMPROVEMENT PAINTING & ROOFING,(415) 974-1234,24-35-248611,2,04/08/2024,10/08/2024,7:00,18:00,7AM - 6PM - Mon - Sat,N,309901,W,19TH AVE: START: 1-99 BLOCK to LAKE ST (1 - 99),30 19TH AVE,901000,25,1340,012,37.786539670927965,-122.47842116559895,"(37.786539670927965, -122.47842116559895)",,,,,
04/01/2024 09:21:19 AM,04/01/2024 09:54:20 AM,04/01/2024 09:21:19 AM,Construction - Private,StreetSpaceRequest,DBI,Owner,415-252-8852,24-7-249024,2,04/08/2024,05/08/2024,7:00,18:00,7AM - 6PM - Mon - Sat,N,310378,S,22ND ST: SAN JOSE AVE to GUERRERO ST (3315 - 3399),3329 22ND ST,1194000,20,3633,048,37.75500910482871,-122.42176575711457,"(37.75500910482871, -122.42176575711457)",,,,,
01/16/2024 02:03:05 PM,03/05/2024 12:04:53 PM,01/16/2024 02:03:05 PM,Construction - Private,StreetSpaceRequest,DBI,Clayton Timbrell & Company,415-660-5604,24-33-244472,3,02/05/2024,08/05/2024,7:00,18:00,7AM - 6PM - Mon - Fri,N,305091,N,CLAY ST: LOCUST ST to SPRUCE ST (3600 - 3699),3636 CLAY ST,4123000,40,0994,005,37.7886170627706,-122.45286148401992,"(37.7886170627706, -122.45286148401992)",,,,,
02/21/2024 08:11:05 AM,02/26/2024 10:18:51 PM,02/21/2024 08:11:05 AM,Construction - Private,StreetSpaceRequest,DBI,KDH Partners,415-689-8889,24-8-246269,2,03/01/2024,09/01/2024,7:00,18:00,7AM - 6PM - Mon - Sun,N,307402,N,CHESTNUT ST: VAN NESS AVE to FRANKLIN ST (1300 - 1399),1336 CHESTNUT ST,3970000,20,0479,005,37.80246802697202,-122.42551771624852,"(37.80246802697202, -122.42551771624852)",,,,,
04/08/2024 11:14:10 AM,04/17/2024 08:38:58 AM,04/08/2024 11:14:10 AM,Construction - Private,StreetSpaceRequest,DBI,Thumbelina Gardens Inc,415-350-8829,24-53-249481,2,04/15/2024,05/15/2024,7:00,17:00,7AM - 5PM - Mon - Sat,N,310845,E,23RD AVE: LINCOLN WAY to IRVING ST (1200 - 1299),1274 23RD AVE,1218000,20,1728,029,37.76387706789901,-122.48111499241249,"(37.76387706789901, -122.48111499241249)",,,,,
01/24/2024 11:39:03 AM,01/25/2024 04:06:07 PM,01/24/2024 11:39:03 AM,Construction - Private,StreetSpaceRequest,DBI,Toolbox,415-699-8193,24-8-244920,2,02/07/2024,08/07/2024,7:30,18:00,7:30AM - 6PM - Mon - Sat,N,305599,W,BRODERICK ST: FELL ST to HAYES ST (400 - 499),419 BRODERICK ST,3191000,20,1205,050,37.77414041537479,-122.43962670173453,"(37.77414041537479, -122.43962670173453)",,,,,
09/15/2016 12:34:23 PM,09/16/2016 12:00:00 AM,09/15/2016 12:34:23 PM,Construction - City Agency,BSMPermits,BSM Non Construction,Weiss Associates,209-552-5034,16TOC-5689,3,09/19/2016,09/20/2106,9:00,15:00,9AM - 3PM - Mon - Tue,N,69657,W,19TH AVE: JUDAH ST to KIRKHAM ST (1401 - 1499) -- WEST --,,911201,40,,,37.760762952390245,-122.47698324207613,"(37.760762952390245, -122.47698324207613)",,,,,
04/18/2024 02:25:07 PM,,04/18/2024 02:25:07 PM,Construction - City Agency,Web Page,BSM Construction,SFDPW Cement Shop RJ,4156952134,1022022,1,04/22/2024,05/22/2024,7:00,16:00,7AM - 4PM - Mon - Fri,N,311724,N,BRYANT ST: 06TH ST to HARRIET ST (800 - 827),800-899 Bryant,3289000,0,,,37.77582102858939,-122.40280024972354,"(37.77582102858939, -122.40280024972354)",,,,,
10/25/2023 03:39:45 PM,11/03/2023 11:56:28 AM,10/25/2023 03:39:45 PM,Construction - Private,StreetSpaceRequest,DBI,Aaron Gordon. Construction,4159869007,23-28-239812,5,11/08/2023,05/08/2024,7:00,17:00,7AM - 5PM - Mon - Sat,N,300073,W,BUENA VISTA AVE WEST: BUENA VISTA AVE \ FREDERICK ST to BUENA VISTA AVE \ CENTRAL AVE (700 - 799),715 BUENA VISTA AVE WEST,3369000,74,1256,063,37.7678673274949,-122.4441073507552,"(37.7678673274949, -122.4441073507552)",,,,,
04/12/2024 02:46:50 PM,04/17/2024 09:20:52 AM,04/12/2024 02:46:50 PM,Construction - Private,StreetSpaceRequest,DBI,D3 Construction,4156268300,24-34-249917,2,04/20/2024,05/20/2024,7:00,18:00,7AM - 6PM - Mon - Sat,N,311312,S,18TH ST: CLOVER ST to DANVERS ST (4601 - 4699),4629 18TH ST,899000,20,2690,037,37.760201939328894,-122.44207272934632,"(37.760201939328894, -122.44207272934632)",,,,,
12/11/2023 01:31:52 PM,01/10/2024 10:13:50 AM,12/11/2023 01:31:52 PM,Construction - Private,StreetSpaceRequest,DBI,Plant Construction Company LP,4158130616,23-58-242392,10,01/12/2024,06/12/2024,0:00,23:00,12AM - 11:59PM - Mon - Sun,N,303149,W,ARGUELLO BLVD: CLAY ST to LAKE ST (151 - 199),2 LAKE ST,2416000,180,1355,011,37.787336567687625,-122.45979320204914,"(37.787336567687625, -122.45979320204914)",,,,,
04/01/2024 02:59:25 PM,04/02/2024 10:32:35 AM,04/01/2024 02:59:25 PM,Construction - Private,StreetSpaceRequest,DBI,Mission Home Remodeling,415-488-3244,24-44-249069,2,04/08/2024,06/08/2024,8:00,17:00,8AM - 5PM - Mon - Fri,N,310420,E,20TH AVE: CALIFORNIA ST to CLEMENT ST (200 - 299),262 20TH AVE,999000,20,1414,030,37.78296970610472,-122.47923722096878,"(37.78296970610472, -122.47923722096878)",,,,,
12/19/2023 02:43:05 PM,01/05/2024 11:33:28 AM,12/19/2023 02:43:05 PM,Construction - Private,StreetSpaceRequest,DBI,Devlin McNally Const,510-409-5583,23-9-243208,4,01/08/2024,07/08/2024,7:00,16:00,7AM - 4PM - Mon - Fri,N,303664,W,DE HARO ST: 16TH ST to 17TH ST (300 - 399),370 DE HARO ST,4630000,60,3956,011,37.76545973746822,-122.40213637617893,"(37.76545973746822, -122.40213637617893)",,,,,
04/08/2024 07:44:38 AM,04/15/2024 05:35:43 PM,04/08/2024 07:44:38 AM,Construction - Private,StreetSpaceRequest,DBI,RCGC,209-80-5800,24-30-249456,2,04/22/2024,07/22/2024,7:00,17:00,7AM - 5PM - Mon - Fri,N,310824,N,CARSON ST: START: 1-99 BLOCK to DOUGLASS ST (1 - 99),32 CARSON ST,3743000,20,2701,023,37.7585677947805,-122.43991655520627,"(37.7585677947805, -122.43991655520627)",,,,,
12/18/2023 09:32:58 AM,12/19/2023 08:18:27 AM,12/18/2023 09:32:58 AM,Construction - Private,StreetSpaceRequest,DBI,Great Ocean Construction Inc,4158163320,23-11-242857,2,01/10/2024,05/10/2024,7:00,18:00,7AM - 6PM - Mon - Sat,N,303548,E,10TH AVE: NORIEGA ST to ORTEGA ST (1800 - 1899),1868 10TH AVE,476000,20,2046,025,37.753373806799885,-122.46631057279981,"(37.753373806799885, -122.46631057279981)",,,,,
03/15/2024 08:24:00 AM,04/04/2024 07:03:57 AM,03/15/2024 08:24:00 AM,Construction - Private,StreetSpaceRequest,DBI,Sal DeGuarda Concrete,4157418531,24-2-248022,2,03/28/2024,06/28/2024,7:00,18:00,7AM - 6PM - Mon - Sat,N,309224,W,11TH AVE: JUDAH ST to KIRKHAM ST (1400 - 1499),1445 11TH AVE,502000,20,1842,009,37.7611697681886,-122.46858648916768,"(37.7611697681886, -122.46858648916768)",,,,,
03/14/2024 09:12:59 AM,04/16/2024 08:01:16 PM,03/14/2024 09:12:59 AM,Construction - Private,StreetSpaceRequest,DBI,Benburb Construction,(628) 222-9162,24-12-247963,7,03/21/2024,05/21/2024,7:00,16:00,7AM - 4PM - Mon - Fri,N,309143,S,CESAR CHAVEZ ST: CAPP ST \ MISSION ST to VALENCIA ST (3401 - 3499) -- SOUTH --,3435 CESAR CHAVEZ ST,2489101,120,6574,069,37.74764806740344,-122.41915054639863,"(37.74764806740344, -122.41915054639863)",,,,,
01/11/2024 08:14:40 AM,01/22/2024 09:36:38 AM,01/11/2024 08:14:40 AM,Construction - Private,StreetSpaceRequest,DBI,C & L Builders Inc,415-748-2672,24-23-244023,2,01/12/2024,07/12/2024,7:00,18:00,7AM - 6PM - Mon - Sat,N,304821,W,16TH AVE: CALIFORNIA ST to CLEMENT ST (200 - 299),217 16TH AVE,671000,20,1417,002,37.783903751231826,-122.47565865079171,"(37.783903751231826, -122.47565865079171)",,,,,
04/10/2024 02:52:01 PM,04/16/2024 11:53:10 AM,04/10/2024 02:52:01 PM,Construction - Private,StreetSpaceRequest,DBI,Banan,3104304056,24-3-249501,2,04/16/2024,06/16/2024,7:00,18:00,7AM - 6PM - Mon - Fri,N,311097,N,24TH ST: VICKSBURG ST to SANCHEZ ST (3850 - 3899),3862 24TH ST,1360000,20,3652,045,37.75181279417225,-122.42888085493584,"(37.75181279417225, -122.42888085493584)",,,,,
03/01/2024 09:03:41 AM,03/06/2024 12:55:09 PM,03/01/2024 09:03:41 AM,Construction - Private,StreetSpaceRequest,DBI,Chun Hung Construction Inc,415-308-3228,24-54-247086,2,03/15/2024,06/15/2024,7:00,18:00,7AM - 6PM - Mon - Sat,N,308129,N,CALIFORNIA ST: 03RD AVE to 04TH AVE (4100 - 4199),4124 CALIFORNIA ST,3579000,25,1363,023,37.78558863311696,-122.46192846339504,"(37.78558863311696, -122.46192846339504)",,,,,
12/22/2023 08:03:18 AM,12/22/2023 11:48:00 AM,12/22/2023 08:03:18 AM,Construction - Private,StreetSpaceRequest,DBI,Hathaway Dinwiddie,4156015355,23-14-242833,4,01/09/2024,07/09/2024,7:00,18:00,7AM - 6PM - Mon - Sat,N,303815,E,DAVIS ST: SACRAMENTO ST to CLAY ST (200 - 299),101 CLAY ST,4607000,60,0232,016,37.79494824610724,-122.39729812024204,"(37.79494824610724, -122.39729812024204)",,,,,
04/01/2024 12:11:36 PM,04/03/2024 10:11:33 AM,04/01/2024 12:11:36 PM,Construction - Private,StreetSpaceRequest,DBI,Terence McMahon Construction,(415) 638-7970,24-15-249044,3,04/08/2024,06/08/2024,7:00,18:00,7AM - 6PM - Mon - Fri,N,310390,S,CHESTNUT ST: MONTGOMERY ST to KEARNY ST \ WINTHROP ST (100 - 149),111 CHESTNUT ST,3951000,40,0060,206,37.804243971675135,-122.4055041030705,"(37.804243971675135, -122.4055041030705)",,,,,
04/02/2024 11:57:32 AM,04/23/2024 12:31:35 PM,04/02/2024 11:57:32 AM,Construction - Private,StreetSpaceRequest,DBI,Santos Construction,415-377-7364,24-52-249130,2,04/22/2024,06/22/2024,7:00,18:00,7AM - 6PM - Mon - Sat,N,310471,N,CERVANTES BLVD: BEACH ST \ MALLORCA WAY to PRADO ST (100 - 178),152 CERVANTES BLVD,3875000,20,0439A,024,37.8047198295913,-122.43991579848594,"(37.8047198295913, -122.43991579848594)",,,,,
01/23/2024 11:32:08 AM,04/02/2021 03:11:46 PM,01/23/2024 11:32:08 AM,Construction - Private,StreetSpaceRequest,DBI,Cameron Builders,415-317-1514,",0",2,02/08/2024,08/08/2024,7:00,18:00,7AM - 6PM - Mon - Fri,N,305512,B,23RD ST: NOE ST to CASTRO ST (4000 - 4099),4027 23RD ST,1282000,20,rto-m,972,37.752958089045904,-122.43313165613851,"(37.752958089045904, -122.43313165613851)",,,,,
04/10/2024 02:52:24 PM,04/16/2024 11:53:10 AM,04/10/2024 02:52:24 PM,Construction - Private,StreetSpaceRequest,DBI,Banan,3104304056,24-3-249501,2,04/16/2024,06/16/2024,7:00,18:00,7AM - 6PM - Mon - Fri,N,311098,N,24TH ST: VICKSBURG ST to SANCHEZ ST (3850 - 3899),3862 24TH ST,1360000,20,3652,045,37.75181279417225,-122.42888085493584,"(37.75181279417225, -122.42888085493584)",,,,,
04/10/2024 10:42:08 AM,04/16/2024 08:50:03 AM,04/10/2024 10:42:08 AM,Construction - Private,StreetSpaceRequest,DBI,OAKLEAF CONSTRUCTION INC,4158007580,24-47-249032,2,04/12/2024,05/12/2024,7:00,17:00,7AM - 5PM - Mon - Sat,N,311039,N,CLIFFORD TER: ROOSEVELT WAY to UPPER TER (1 - 99),60 CLIFFORD TER,4206000,28,2628,005,37.76358321594103,-122.44331059484273,"(37.76358321594103, -122.44331059484273)",,,,,
01/23/2024 09:14:32 AM,04/02/2021 03:11:46 PM,01/23/2024 09:14:32 AM,Construction - Private,StreetSpaceRequest,DBI,Jazo Construction,650-630-8638,",0",2,02/12/2024,05/12/2024,8:00,16:30,8AM - 4:30PM - Mon - Sun,N,305496,B,CASTENADA AVE: ALTON AVE to FOREST HILL PATH \ MAGELLAN AVE (51 - 134),140 CASTENADA AVE,3770000,20,rto-m,972,37.74962563622699,-122.46195832545045,"(37.74962563622699, -122.46195832545045)",,,,,
04/04/2024 07:39:37 PM,04/16/2024 09:15:41 AM,04/04/2024 07:39:37 PM,Construction - Private,StreetSpaceRequest,DBI,KINGZA CONSTRUCTION INC,6504387281,24-45-249055,4,04/16/2024,08/16/2024,7:00,18:00,7AM - 6PM - Mon - Sat,N,310722,S,BACON ST: GIRARD ST to BRUSSELS ST (200 - 299),400 GIRARD ST,2581000,50,6047,001,37.727194967337034,-122.4048095417966,"(37.727194967337034, -122.4048095417966)",,,,,
03/28/2024 12:54:16 PM,04/04/2024 01:54:22 PM,03/28/2024 12:54:16 PM,Construction - Private,StreetSpaceRequest,DBI,"Design Line Construction, Inc.",415-647-1373,24-15-248743,2,04/11/2024,10/11/2024,8:00,18:00,8AM - 6PM - Mon - Fri,N,310230,E,BRODERICK ST: VALLEJO ST to GREEN ST (2600 - 2699),2786 VALLEJO ST,3213000,26,0954,010,37.794437327328744,-122.44320950090493,"(37.794437327328744, -122.44320950090493)",,,,,
03/28/2024 08:38:17 AM,04/10/2024 03:40:07 PM,03/28/2024 08:38:17 AM,Construction - Private,StreetSpaceRequest,DBI,Hathaway Dinwiddie,(415) 265-5674,24-9-247335,3,04/08/2024,07/08/2024,7:00,18:00,7AM - 6PM - Mon - Sun,N,310160,N,CLAY ST: SANSOME ST to LEIDESDORFF ST (500 - 548),535 WASHINGTON ST,4084000,40,0207,033,37.79515884162016,-122.40221079523491,"(37.79515884162016, -122.40221079523491)",,,,,
04/04/2024 05:28:36 PM,04/16/2024 09:15:41 AM,04/04/2024 05:28:36 PM,Construction - Private,StreetSpaceRequest,DBI,KINGZA CONSTRUCTION INC,6504387281,24-45-249055,4,04/16/2024,08/16/2024,7:00,18:00,7AM - 6PM - Mon - Sat,N,310716,S,BACON ST: GIRARD ST to BRUSSELS ST (200 - 299),400 GIRARD ST,2581000,50,6047,001,37.727194967337034,-122.4048095417966,"(37.727194967337034, -122.4048095417966)",,,,,
12/06/2023 07:40:10 AM,12/15/2023 03:10:07 PM,12/06/2023 07:40:10 AM,Construction - Private,StreetSpaceRequest,DBI,Moroso,415-777-1121,23-57-242132,4,12/13/2023,06/13/2024,7:00,18:00,7AM - 6PM - Mon - Sat,N,302759,S,21ST ST: CHURCH ST to SANCHEZ ST (3600 - 3699),3669 21ST ST,1120000,50,3620,054,37.75612719058931,-122.42932743889996,"(37.75612719058931, -122.42932743889996)",,,,,
04/09/2024 08:21:31 AM,04/16/2024 08:22:11 AM,04/09/2024 08:21:31 AM,Construction - Private,StreetSpaceRequest,DBI,"Saarman Construction, Ltd.",(415)749-2700,24-53-248760,3,04/13/2024,10/13/2024,23:00,0:00,11:59PM - 12:01AM - Mon - Sun,N,310923,W,04TH ST: MISSION ROCK ST to CHINA BASIN ST (1200 - 1299),1200 04TH ST,19983000,40,8711,017,37.772483606822554,-122.39181160681602,"(37.772483606822554, -122.39181160681602)",,,,,
12/11/2023 01:31:52 PM,01/10/2024 10:13:50 AM,12/11/2023 01:31:52 PM,Construction - Private,StreetSpaceRequest,DBI,Plant Construction Company LP,4158130616,23-58-242392,4,01/12/2024,06/12/2024,0:00,23:00,12AM - 11:59PM - Mon - Sun,N,303149,E,02ND AVE: START: 1-99 BLOCK to LAKE ST (1 - 99),2 LAKE ST,118000,57,1355,011,37.787336567687625,-122.45979320204914,"(37.787336567687625, -122.45979320204914)",,,,,
04/20/2024 06:53:23 AM,04/23/2024 09:18:52 AM,04/20/2024 06:53:23 AM,Construction - Private,StreetSpaceRequest,DBI,JML Landscapes,415 821-3760,24-11-249587,2,04/23/2024,06/23/2024,7:00,18:00,7AM - 6PM - Mon - Fri,N,311855,E,16TH AVE: LINCOLN WAY to IRVING ST (1200 - 1299),1238  16TH AVE,677000,20,1735,044,37.76482429114869,-122.47364917077985,"(37.76482429114869, -122.47364917077985)",,,,,
03/21/2024 09:12:01 AM,03/27/2024 04:31:18 PM,03/21/2024 09:12:01 AM,Construction - Private,StreetSpaceRequest,DBI,West Coast Builders,(415) 717-0806,24-25-247070,2,04/04/2024,08/04/2024,7:00,18:00,7AM - 6PM - Mon - Sat,N,309653,N,19TH ST: DIAMOND ST to EUREKA ST (4300 - 4399),4334 19TH ST,987000,20,2693,020,37.759295904936,-122.4378998546872,"(37.759295904936, -122.4378998546872)",,,,,
03/18/2024 01:06:37 PM,04/17/2024 11:22:39 AM,03/18/2024 01:06:37 PM,Construction - Private,StreetSpaceRequest,DBI,Bartley Construction,(415) 760-4971,24-46-248191,2,04/01/2024,06/01/2024,7:00,18:00,7AM - 6PM - Mon - Sat,N,309402,N,18TH ST: CLOVER ST to DANVERS ST (4601 - 4699),4630 18TH ST,899000,20,2658,073,37.76068031960154,-122.44176898002819,"(37.76068031960154, -122.44176898002819)",,,,,
09/15/2016 12:34:23 PM,09/16/2016 12:00:00 AM,09/15/2016 12:34:23 PM,Construction - City Agency,BSMPermits,BSM Non Construction,Weiss Associates,209-552-5034,16TOC-5689,3,09/19/2016,09/20/2106,9:00,15:00,9AM - 3PM - Mon - Tue,N,69657,W,19TH AVE: CROSSOVER DR \ LINCOLN WAY to IRVING ST (1201 - 1299) -- WEST --,,909201,40,,,37.76449950202074,-122.47730871361055,"(37.76449950202074, -122.47730871361055)",,,,,
04/02/2024 11:55:15 AM,04/23/2024 12:31:35 PM,04/02/2024 11:55:15 AM,Construction - Private,StreetSpaceRequest,DBI,Santos Construction,415-377-7364,24-52-249130,2,04/22/2024,06/22/2024,7:00,18:00,7AM - 6PM - Mon - Sat,N,310469,N,CERVANTES BLVD: BEACH ST \ MALLORCA WAY to PRADO ST (100 - 178),152 CERVANTES BLVD,3875000,20,0439A,024,37.8047198295913,-122.43991579848594,"(37.8047198295913, -122.43991579848594)",,,,,
10/27/2023 11:35:17 AM,11/22/2023 11:51:34 AM,10/27/2023 11:35:17 AM,Construction - Private,StreetSpaceRequest,DBI,"Sean Kelly Construction, Inc.",4157605655,23-34-239972,2,11/27/2023,05/27/2024,7:00,18:00,7AM - 6PM - Mon - Sat,N,300223,W,ASHBURY ST: FREDERICK ST to PIEDMONT ST (800 - 929),811 ASHBURY ST,2515000,24,1269,003,37.76690982785247,-122.44661332930966,"(37.76690982785247, -122.44661332930966)",,,,,
03/28/2024 11:43:19 AM,04/11/2024 12:53:23 PM,03/28/2024 11:43:19 AM,Construction - Private,StreetSpaceRequest,DBI,Fellowes Development,415-987-2954,24-49-244648,2,03/18/2024,05/18/2024,7:00,18:00,7AM - 6PM - Mon - Fri,N,310218,N,BALBOA ST: 04TH AVE to 05TH AVE (300 - 399),324 BALBOA ST,2648000,20,1547,025,37.77755570472538,-122.46237789522978,"(37.77755570472538, -122.46237789522978)",,,,,
01/11/2024 08:27:44 AM,01/29/2024 12:56:58 PM,01/11/2024 08:27:44 AM,Construction - Private,StreetSpaceRequest,DBI,CP/m Design Company,5108138001,24-0-243904,2,01/26/2024,07/26/2024,7:30,18:00,7:30AM - 6PM - Mon - Sat,N,304823,W,CENTRAL AVE: GOLDEN GATE AVE to TURK BLVD (900 - 999),917 CENTRAL AVE,3868000,20,1149,004,37.7784174961126,-122.44557194835659,"(37.7784174961126, -122.44557194835659)",,,,,
04/04/2024 10:51:03 AM,04/16/2024 09:15:41 AM,04/04/2024 10:51:03 AM,Construction - Private,StreetSpaceRequest,DBI,KINGZA CONSTRUCTION INC,6504387281,24-45-249055,4,04/16/2024,08/16/2024,7:00,18:00,7AM - 6PM - Mon - Sat,N,310639,S,BACON ST: GIRARD ST to BRUSSELS ST (200 - 299),400 GIRARD ST,2581000,50,6047,001,37.727194967337034,-122.4048095417966,"(37.727194967337034, -122.4048095417966)",,,,,
03/27/2024 12:10:42 PM,04/18/2024 11:06:45 AM,03/27/2024 12:10:42 PM,Construction - Private,StreetSpaceRequest,DBI,Gil construction,6509927800,24-51-248405,2,04/22/2024,05/22/2024,7:00,18:00,7AM - 6PM - Mon - Sat,N,310097,E,BELVEDERE ST: RIVOLI ST to 17TH ST (544 - 599),560 BELVEDERE ST,2913000,20,1279,054,37.762532780333245,-122.44762136994314,"(37.762532780333245, -122.44762136994314)",,,,,
04/18/2024 02:26:40 PM,,04/18/2024 02:26:40 PM,Construction - City Agency,Web Page,BSM Construction,SFDPW Cement Shop RJ,4156952134,1022022,2,04/22/2024,05/22/2024,7:00,16:00,7AM - 4PM - Mon - Fri,N,311724,N,BRYANT ST: HARRIET ST to BOARDMAN PL (826 - 850),800-899 Bryant,3290000,20,,,37.77538177316014,-122.4033559605851,"(37.77538177316014, -122.4033559605851)",,,,,
09/15/2016 12:34:23 PM,09/16/2016 12:00:00 AM,09/15/2016 12:34:23 PM,Construction - City Agency,BSMPermits,BSM Non Construction,Weiss Associates,209-552-5034,16TOC-5689,3,09/19/2016,09/20/2106,9:00,15:00,9AM - 3PM - Mon - Tue,N,69657,E,19TH AVE: JUDAH ST to KIRKHAM ST (1400 - 1498) -- EAST --,,911101,40,,,37.760770383221725,-122.47683648414359,"(37.760770383221725, -122.47683648414359)",,,,,
04/16/2024 08:19:02 AM,04/17/2024 10:09:23 AM,04/16/2024 08:19:02 AM,Construction - Private,StreetSpaceRequest,DBI,Gary Evans,415-990-0399,24-25-250037,2,04/22/2024,06/22/2024,7:00,17:00,7AM - 5PM - Mon - Sat,N,311452,E,COLE ST: ALMA ST to RIVOLI ST (1200 - 1299),1238 COLE ST,4246000,20,1285,016,37.762820463390796,-122.44906119682992,"(37.762820463390796, -122.44906119682992)",,,,,
03/29/2024 11:52:51 AM,04/10/2024 03:39:00 PM,03/29/2024 11:52:51 AM,Construction - Private,StreetSpaceRequest,DBI,JAD CONSTRUCTION,4152982775,24-17-248642,2,04/08/2024,07/08/2024,7:00,18:00,7AM - 6PM - Mon - Sat,N,310312,W,AVILA ST: CAPRA WAY to BEACH ST (200 - 299),259 AVILA ST,2569000,20,0441A,002B,37.803269768212665,-122.44116035701879,"(37.803269768212665, -122.44116035701879)",,,,,
12/05/2023 04:06:58 PM,12/27/2023 01:33:02 PM,12/05/2023 04:06:58 PM,Construction - Private,StreetSpaceRequest,DBI,Cook Construction,415-359-4646,23-47-242230,2,01/06/2024,07/06/2024,7:00,18:00,7AM - 6PM - Mon - Sat,N,302740,S,CUMBERLAND ST: SANCHEZ ST to MID BLOCK (300 - 393),357 CUMBERLAND ST,4550001,24,3601,037,37.75843731806174,-122.43155894285479,"(37.75843731806174, -122.43155894285479)",,,,,
10/23/2023 12:14:38 PM,11/14/2023 10:43:22 AM,10/23/2023 12:14:38 PM,Construction - Private,StreetSpaceRequest,DBI,LH construction,415-563-5563,23-19-239683,2,11/10/2023,05/10/2024,7:00,17:00,7AM - 5PM - Mon - Sat,N,299877,N,BAKER ST: VALLEJO ST to GREEN ST (2500 - 2599),2544 BAKER ST,2629000,20,0955,019,37.79457066426512,-122.44486166615354,"(37.79457066426512, -122.44486166615354)",,,,,
11/06/2023 08:00:13 AM,11/15/2023 05:34:29 PM,11/06/2023 08:00:13 AM,Construction - Private,StreetSpaceRequest,DBI,"Restoration Workshop, Ltd.",4155960843,23-26-240511,2,11/21/2023,05/21/2024,7:30,18:00,7:30AM - 6PM - Mon - Fri,N,300818,E,BUENA VISTA TER: BUENA VISTA AVE \ DUBOCE AVE to 14TH ST (1 - 100),93 BUENA VISTA TER,3359000,20,2609,025,37.76737026879378,-122.43796185059713,"(37.76737026879378, -122.43796185059713)",,,,,
11/07/2023 03:43:50 PM,11/09/2023 04:43:40 PM,11/07/2023 03:43:50 PM,Construction - Private,StreetSpaceRequest,DBI,Great Ocean Construction,4158163320,23-46-240648,2,11/13/2023,05/13/2024,7:00,18:00,7AM - 6PM - Mon - Sat,N,300959,W,25TH AVE: ANZA ST to BALBOA ST (600 - 699),639 25TH AVE,1377000,20,1568,005A,37.777336757292886,-122.484865031476,"(37.777336757292886, -122.484865031476)",,,,,
02/23/2024 01:21:01 PM,04/05/2024 10:49:12 AM,02/23/2024 01:21:01 PM,Construction - Private,StreetSpaceRequest,DBI,Marquez Builders,415 619-1968,24-11-246514,2,04/04/2024,07/04/2024,7:00,18:00,7AM - 6PM - Mon - Sat,N,307691,W,18TH AVE: CABRILLO ST to FULTON ST (700 - 799),779  18TH AVE,833000,20,1661,009,37.773319886363694,-122.47705045580977,"(37.773319886363694, -122.47705045580977)",,,,,
11/01/2017 11:49:58 AM,,11/01/2017 11:49:58 AM,Construction - City Agency,Web Page,BSM Construction,07/31/16,695-2144,afadfasdf,2,10/11/2010,10/25/2025,7:00,18:00,7AM - 6PM - Mon - Fri,N,113502,N,BRYANT ST: BEALE ST \ DELANCEY ST to RINCON ST (100 - 331),1000 blk Cayuga ave,3277000,20,,,37.785259642597396,-122.3909317766605,"(37.785259642597396, -122.3909317766605)",,,,,
04/14/2024 07:14:13 PM,01/01/1900 12:00:00 AM,04/14/2024 07:14:13 PM,Construction - Private,DBI,,UL Roofing Inc,4156585358,202403228437,2,04/22/2024,05/22/2024,7:00,17:00,7AM - 5PM - Mon - Fri,N,311321,B,42ND AVE: QUINTARA ST to RIVERA ST (2100 - 2199),2170 42ND AV,1941000,20,2176,035,37.74626390787895,-122.50030791115266,"(37.74626390787895, -122.50030791115266)",,,,,
04/09/2024 09:45:51 AM,04/10/2024 01:27:29 PM,04/09/2024 09:45:51 AM,Construction - Private,StreetSpaceRequest,DBI,"Giant Landscaping, Inc",415-860-9995,24-21-249559,2,04/15/2024,05/15/2024,7:00,17:00,7AM - 5PM - Mon - Fri,N,310938,N,22ND ST: EUREKA ST to DOUGLASS ST (4100 - 4199),4120 22ND ST,1208000,20,2767,009,37.7545019166194,-122.43819454163616,"(37.7545019166194, -122.43819454163616)",,,,,
04/01/2024 09:31:50 AM,04/10/2024 11:15:20 AM,04/01/2024 09:31:50 AM,Construction - Private,StreetSpaceRequest,DBI,American Technologies LLC,(510) 429-5000,24-12-249025,2,04/08/2024,05/08/2024,7:00,17:00,7AM - 5PM - Mon - Fri,N,310380,E,03RD AVE: CORNWALL ST to CLEMENT ST (200 - 299),240 03RD AVE,153000,25,1431,034,37.78414293640493,-122.46095343085533,"(37.78414293640493, -122.46095343085533)",,,,,
11/30/2023 03:27:31 PM,04/02/2021 03:11:46 PM,11/30/2023 03:27:31 PM,Construction - Private,StreetSpaceRequest,DBI,C & H Home Construction,415-816-0013,",0",2,12/14/2023,06/14/2024,8:00,17:00,8AM - 5PM - Mon - Sat,N,302398,B,11TH AVE: LAWTON ST to MORAGA ST (1600 - 1699),1683 11TH AVE,504000,20,rto-m,972,37.75741853094819,-122.46799599042569,"(37.75741853094819, -122.46799599042569)",,,,,
04/15/2024 01:36:39 PM,04/23/2024 06:41:36 PM,04/15/2024 01:36:39 PM,Construction - Private,StreetSpaceRequest,DBI,Tako Studio LLC,(415) 770-1013,24-8-249994,2,04/29/2024,09/29/2024,7:00,17:00,7AM - 5PM - Mon - Sat,N,311401,E,08TH AVE: CABRILLO ST to FULTON ST (700 - 799),772 08TH AVE,393000,20,1650,039,37.773909040616026,-122.46559089504959,"(37.773909040616026, -122.46559089504959)",,,,,
04/19/2024 08:47:11 AM,04/19/2024 12:04:45 PM,04/19/2024 08:47:11 AM,Construction - Private,StreetSpaceRequest,DBI,House Works,415-825-5024,24-8-250301,3,04/22/2024,05/22/2024,7:00,16:00,7AM - 4PM - Mon - Fri,N,311788,S,22ND ST: CAROLINA ST to DE HARO ST (1851 - 1999),900 CAROLINA ST,1170000,40,4160,083,37.75709764718042,-122.40020393791886,"(37.75709764718042, -122.40020393791886)",,,,,
04/05/2024 09:23:24 AM,04/23/2024 07:43:14 AM,04/05/2024 09:23:24 AM,Construction - Private,StreetSpaceRequest,DBI,Tom Lewis Restoration,(415) 850-5869,24-32-249401,3,04/11/2024,05/11/2024,7:00,17:00,7AM - 5PM - Mon - Sat,N,310750,W,09TH ST: HARRISON ST to MCLEA CT (400 - 465),450 09TH ST,457000,40,3525,008,37.77161153672681,-122.40956575848779,"(37.77161153672681, -122.40956575848779)",,,,,
12/21/2023 08:06:35 AM,01/18/2024 11:17:40 AM,12/21/2023 08:06:35 AM,Construction - Private,StreetSpaceRequest,DBI,HEARTH CORPORATION,4159021777,23-8-243137,2,01/04/2024,07/04/2024,7:00,18:00,7AM - 6PM - Mon - Sat,N,303744,W,BAKER ST: FULTON ST to MCALLISTER ST (600 - 699),621 BAKER ST,2610000,24,1177,007,37.77675735418095,-122.44194232053152,"(37.77675735418095, -122.44194232053152)",,,,,
04/23/2024 07:14:22 AM,01/01/1900 12:00:00 AM,04/23/2024 07:14:22 AM,Construction - Private,StreetSpaceRequest,DBI,OWNER,415-636-1896,24-29-250499,2,04/27/2024,05/27/2024,7:00,18:00,7AM - 6PM - Mon - Sat,N,311984,E,COLE ST: ALMA ST to RIVOLI ST (1200 - 1299),1208  COLE ST,4246000,20,1285,019,37.763044998840435,-122.44910650956857,"(37.763044998840435, -122.44910650956857)",,,,,
04/23/2024 07:19:22 AM,,04/23/2024 07:19:22 AM,Construction - Private,StreetSpaceRequest,DBI,OWNER,415-636-1896,24-29-250499,2,04/27/2024,05/27/2024,7:00,18:00,7AM - 6PM - Mon - Sat,N,311986,E,COLE ST: ALMA ST to RIVOLI ST (1200 - 1299),1208  COLE ST,4246000,20,1285,019,37.763044998840435,-122.44910650956857,"(37.763044998840435, -122.44910650956857)",,,,,
03/19/2024 10:37:22 AM,04/10/2024 09:09:32 AM,03/19/2024 10:37:22 AM,Construction - Private,StreetSpaceRequest,DBI,Christopher Wells Construction,415-656-1220,24-42-248256,2,03/25/2024,05/25/2024,7:00,17:00,7AM - 5PM - Mon - Fri,N,309473,W,45TH AVE: IRVING ST to JUDAH ST (1300 - 1399),1335 45TH AVE,1999000,20,1800,008,37.761492388308426,-122.505258033465,"(37.761492388308426, -122.505258033465)",,,,,
04/11/2024 03:43:16 PM,04/02/2021 03:11:46 PM,04/11/2024 03:43:16 PM,Construction - Private,StreetSpaceRequest,DBI,Romkon Inc,415-516-5180,",0",3,04/25/2024,10/25/2024,7:00,18:00,7AM - 6PM - Mon - Sun,N,311203,B,28TH AVE: GEARY BLVD to ANZA ST (500 - 599),562 28TH AVE,1579000,39,rto-m,972,37.77898372892879,-122.48787543188313,"(37.77898372892879, -122.48787543188313)",,,,,
01/29/2024 11:08:23 AM,02/02/2024 11:27:00 PM,01/29/2024 11:08:23 AM,Construction - Private,StreetSpaceRequest,DBI,"Makison,Inc.",(510) 786-7488,24-18-245060,2,02/07/2024,05/07/2024,7:00,18:00,7AM - 6PM - Mon - Sat,N,305877,N,CORNWALL ST: 03RD AVE to 04TH AVE (200 - 299),211 CORNWALL ST,4406000,20,1430,046,37.784685728917516,-122.46186352983645,"(37.784685728917516, -122.46186352983645)",,,,,
04/12/2024 01:40:40 PM,04/19/2024 01:37:50 PM,04/12/2024 01:40:40 PM,Construction - Private,StreetSpaceRequest,DBI,Company Name,415-661-8400,24-49-249576,2,04/22/2024,05/22/2024,7:00,17:00,7AM - 5PM - Mon - Fri,N,311293,N,CASTRO ST: HILL ST to 22ND ST (851 - 899),879 CASTRO ST,3796000,20,3622,031,37.75484002193366,-122.4340969124901,"(37.75484002193366, -122.4340969124901)",,,,,
09/15/2016 12:34:23 PM,09/16/2016 12:00:00 AM,09/15/2016 12:34:23 PM,Construction - City Agency,BSMPermits,BSM Non Construction,Weiss Associates,209-552-5034,16TOC-5689,3,09/19/2016,09/20/2106,9:00,15:00,9AM - 3PM - Mon - Tue,N,69657,W,19TH AVE: IRVING ST to JUDAH ST (1301 - 1399) -- WEST --,,910201,40,,,37.762624585413874,-122.47716218941001,"(37.762624585413874, -122.47716218941001)",,,,,
01/31/2024 10:36:42 AM,02/05/2024 03:55:50 PM,01/31/2024 10:36:42 AM,Construction - Private,StreetSpaceRequest,DBI,SF Builders Inc,415-290-0374,24-43-245333,2,02/14/2024,08/14/2024,7:30,17:30,7:30AM - 5:30PM - Mon - Fri,N,306053,S,ANZA ST: 17TH AVE to 18TH AVE (2600 - 2699),2645 ANZA ST,2335000,20,1560,045,37.77837378216523,-122.47680189289076,"(37.77837378216523, -122.47680189289076)",,,,,
04/19/2024 02:16:13 PM,04/22/2024 02:29:32 PM,04/19/2024 02:16:13 PM,Construction - Private,StreetSpaceRequest,DBI,Saarman Construction Ltd.,(415) 749-2700,24-8-249928,5,04/22/2024,08/22/2024,7:00,17:00,7AM - 5PM - Mon - Fri,N,311846,N,CHINA BASIN ST: 04TH ST to MERRIMAC ST (600 - 699),1200 04TH ST,15026000,80,8711,017,37.772483606822554,-122.39181160681602,"(37.772483606822554, -122.39181160681602)",,,,,
04/19/2024 01:37:37 PM,04/19/2024 04:35:04 PM,04/19/2024 01:37:37 PM,Construction - Private,StreetSpaceRequest,DBI,F Joseph Butler Architect,415-990-6024,24-38-250366,2,05/03/2024,11/03/2024,7:00,18:00,7AM - 6PM - Mon - Sat,N,311827,N,CHESTNUT ST: GRANT AVE to BELLAIR PL (300 - 364),340 CHESTNUT ST,3954000,20,0054,012,37.80447455529814,-122.40902945153778,"(37.80447455529814, -122.40902945153778)",,,,,
01/04/2024 07:21:25 AM,01/11/2024 12:29:46 PM,01/04/2024 07:21:25 AM,Construction - Private,StreetSpaceRequest,DBI,"McGowan Builders, Inc.",4157389412,24-57-243618,2,01/18/2024,07/18/2024,7:00,17:00,7AM - 5PM - Mon - Sat,N,304257,E,06TH AVE: JUDAH ST to KIRKHAM ST (1400 - 1499),1414 06TH AVE,324000,25,1848,047,37.76197916946214,-122.46266165991555,"(37.76197916946214, -122.46266165991555)",,,,,
01/19/2024 10:49:08 AM,01/26/2024 09:11:44 AM,01/19/2024 10:49:08 AM,Construction - Private,StreetSpaceRequest,DBI,Cook Construction,415-531-7754,24-46-244712,2,02/02/2024,08/02/2024,7:00,17:00,7AM - 5PM - Mon - Sat,N,305372,S,BROADWAY: BRODERICK ST to BAKER ST (2800 - 2899),2898 BROADWAY,3184000,20,0958,009,37.79333527083056,-122.4447097709113,"(37.79333527083056, -122.4447097709113)",,,,,
04/19/2024 08:28:52 AM,04/23/2024 11:27:16 AM,04/19/2024 08:28:52 AM,Construction - Private,StreetSpaceRequest,DBI,Owner,(415) 519-1396,24-52-250330,2,05/03/2024,08/03/2024,8:00,18:00,8AM - 6PM - Mon - Sun,N,311781,E,ANDOVER ST: EUGENIA AVE to CORTLAND AVE (200 - 299),257 ANDOVER ST,2277000,20,5664,025,37.73972301804717,-122.41626977508633,"(37.73972301804717, -122.41626977508633)",,,,,
09/15/2016 12:34:23 PM,09/16/2016 12:00:00 AM,09/15/2016 12:34:23 PM,Construction - City Agency,BSMPermits,BSM Non Construction,Weiss Associates,209-552-5034,16TOC-5689,3,09/19/2016,09/20/2106,9:00,15:00,9AM - 3PM - Mon - Tue,N,69657,E,19TH AVE: CROSSOVER DR \ LINCOLN WAY to IRVING ST (1200 - 1298) -- EAST --,,909101,40,,,37.764505395068724,-122.47718159266297,"(37.764505395068724, -122.47718159266297)",,,,,
01/18/2024 12:35:21 PM,01/28/2024 05:54:55 PM,01/18/2024 12:35:21 PM,Construction - Private,StreetSpaceRequest,DBI,Cooper Construction,4158602851,24-27-243904,2,01/22/2024,07/22/2024,0:00,23:00,12:01AM - 11:59PM - Mon - Sun,Y,305303,E,22ND AVE: ANZA ST to BALBOA ST (500 - 599),538  22ND AVE,1136000,16,1564,035,37.77756353523906,-122.48099436507063,"(37.77756353523906, -122.48099436507063)",,,,,
12/12/2023 03:47:44 PM,01/03/2024 12:22:03 PM,12/12/2023 03:47:44 PM,Construction - Private,StreetSpaceRequest,DBI,"OShea Co. Home Grown Construction, LLC",4153494233,23-7-242703,2,01/03/2024,07/03/2024,7:00,17:00,7AM - 5PM - Mon - Sat,N,303246,W,ARLINGTON ST: NATICK ST \ SAN JOSE AV OFF RAMP \ WILDER ST to BOSWORTH ST \ I-280 S ON RAMP (580 - 638),616 ARLINGTON ST,2455000,20,6745,001B,37.73374472908891,-122.43230658464852,"(37.73374472908891, -122.43230658464852)",,,,,
04/19/2024 09:25:52 AM,04/24/2024 01:36:49 PM,04/19/2024 09:25:52 AM,Construction - Private,StreetSpaceRequest,DBI,CertaPro Painters of San Francisco,415-661-8400,24-28-250182,2,04/29/2024,05/29/2024,7:00,17:00,7AM - 5PM - Mon - Fri,N,311795,W,10TH AVE: BALBOA ST to CABRILLO ST (600 - 699),665 10TH AVE,467000,20,1634,007,37.77583583370973,-122.46853035444558,"(37.77583583370973, -122.46853035444558)",,,,,
04/17/2024 12:31:00 PM,04/23/2024 05:49:52 PM,04/17/2024 12:31:00 PM,Construction - Private,StreetSpaceRequest,DBI,American Home Renewal,650-781-7491,24-9-250054,2,04/24/2024,05/24/2024,7:00,18:00,7AM - 6PM - Mon - Sat,N,311576,W,24TH AVE: CABRILLO ST to FULTON ST (800 - 899),835 24TH AVE,1297000,20,1667,009,37.773778260548156,-122.483533152988,"(37.773778260548156, -122.483533152988)",,,,,
12/20/2023 03:00:20 PM,01/02/2024 12:20:09 PM,12/20/2023 03:00:20 PM,Construction - Private,StreetSpaceRequest,DBI,Ewen Utting Inc,415-608-3936,23-42-243269,2,01/05/2024,07/05/2024,7:00,17:00,7AM - 5PM - Mon - Sat,N,303719,N,AVILA ST: CHESTNUT ST to ALHAMBRA ST (1 - 99),26 AVILA ST,2567000,20,0488A,017,37.80072089267699,-122.44014982542679,"(37.80072089267699, -122.44014982542679)",,,,,
04/17/2024 12:50:41 PM,04/19/2024 03:17:07 PM,04/17/2024 12:50:41 PM,Construction - Private,StreetSpaceRequest,DBI,Stingray Builders,4158899134,24-3-250075,2,05/01/2024,11/01/2024,7:00,17:00,7AM - 5PM - Mon - Sat,N,311591,W,BANKS ST: START: 66-88 BLOCK to CHAPMAN ST (66 - 89),74 BANKS ST,2713000,25,5627,016,37.741928658843555,-122.41274143856141,"(37.741928658843555, -122.41274143856141)",,,,,
11/27/2023 07:47:04 AM,12/01/2023 02:47:39 PM,11/27/2023 07:47:04 AM,Construction - Private,StreetSpaceRequest,DBI,Quan Chen Construction Inc,510-813-2718,23-1-241595,2,12/07/2023,05/07/2024,7:00,18:00,7AM - 6PM - Mon - Sat,N,302027,E,20TH AVE: JUDAH ST to KIRKHAM ST (1400 - 1499),1474 20TH AVE,1007000,20,1834,022,37.76028775888349,-122.47763999217891,"(37.76028775888349, -122.47763999217891)",,,,,
11/13/2023 01:00:43 PM,11/22/2023 07:14:43 AM,11/13/2023 01:00:43 PM,Construction - Private,StreetSpaceRequest,DBI,Nima Construction Company,415-578-2018,23-10-240718,4,11/29/2023,05/29/2024,7:00,18:00,7AM - 6PM - Mon - Sat,N,301281,W,20TH ST: WISCONSIN ST to CAROLINA ST \ JACK BALESTRERI WAY (1800 - 1899),600 WISCONSIN ST,1037000,60,4097,001,37.759706996917295,-122.39948232574756,"(37.759706996917295, -122.39948232574756)",,,,,
12/08/2023 08:14:53 AM,01/09/2024 02:43:25 PM,12/08/2023 08:14:53 AM,Construction - Private,StreetSpaceRequest,DBI,Plant Construction Company LP,4158130616,23-35-242395,5,01/12/2024,06/12/2024,7:00,18:00,7AM - 6PM - Mon - Fri,N,302967,W,ARGUELLO BLVD: PRESIDIO TER \ WASHINGTON ST to CLAY ST (100 - 150),2 LAKE ST,2415000,73,1355,011,37.787336567687625,-122.45979320204914,"(37.787336567687625, -122.45979320204914)",,,,,
12/08/2023 08:14:53 AM,01/09/2024 02:43:25 PM,12/08/2023 08:14:53 AM,Construction - Private,StreetSpaceRequest,DBI,Plant Construction Company LP,4158130616,23-35-242395,3,01/12/2024,06/12/2024,7:00,18:00,7AM - 6PM - Mon - Fri,N,302967,W,ARGUELLO BLVD: CLAY ST to LAKE ST (151 - 199),2 LAKE ST,2416000,37,1355,011,37.787336567687625,-122.45979320204914,"(37.787336567687625, -122.45979320204914)",,,,,
12/20/2023 12:03:40 PM,01/26/2024 10:16:09 AM,12/20/2023 12:03:40 PM,Construction - Private,StreetSpaceRequest,DBI,SF Builders Inc,415-290-0374,23-19-243263,2,02/08/2024,06/08/2024,8:00,17:00,8AM - 5PM - Mon - Fri,N,303711,N,BALBOA ST: 32ND AVE to 33RD AVE (3100 - 3199),3126 BALBOA ST,2677000,20,1575,038,37.776180768529365,-122.49251268766882,"(37.776180768529365, -122.49251268766882)",,,,,
12/20/2023 11:21:41 AM,12/26/2023 09:20:10 AM,12/20/2023 11:21:41 AM,Construction - Private,StreetSpaceRequest,DBI,Acri DDC,(415)215-9634,23-32-243217,2,12/08/2023,06/08/2024,7:00,18:00,7AM - 6PM - Mon - Sat,N,303706,N,CLAY ST: PRESIDIO AVE to WALNUT ST (3300 - 3399),3312 CLAY ST,4120000,24,0997,005,37.78925535086356,-122.44754631415914,"(37.78925535086356, -122.44754631415914)",,,,,
12/13/2023 07:45:55 AM,12/19/2023 04:08:54 PM,12/13/2023 07:45:55 AM,Construction - Private,StreetSpaceRequest,DBI,Osmun Construction,415-761-9739,23-31-240979,2,12/26/2023,06/26/2024,7:00,18:00,7AM - 6PM - Mon - Sat,N,303261,W,BRODERICK ST: VALLEJO ST to GREEN ST (2600 - 2699),2637 BRODERICK ST,3213000,20,0955,004,37.794676793443635,-122.44378192551821,"(37.794676793443635, -122.44378192551821)",,,,,
12/12/2023 03:52:34 PM,01/15/2024 02:17:54 PM,12/12/2023 03:52:34 PM,Construction - Private,StreetSpaceRequest,DBI,"BROOKSHIRE,Inc.",4153545585,23-21-242617,3,12/27/2023,06/27/2024,7:30,17:00,7:30AM - 5PM - Mon - Sat,N,303250,S,BELGRAVE AVE: SHRADER ST to STANYAN ST (65 - 199),177 BELGRAVE AVE,2887000,40,2688,069,37.75928123446768,-122.45109176538517,"(37.75928123446768, -122.45109176538517)",,,,,
11/28/2023 03:16:10 PM,12/20/2023 02:53:37 PM,11/28/2023 03:16:10 PM,Construction - Private,StreetSpaceRequest,DBI,Paul Machle,(408) 569-3035,23-11-241793,3,12/12/2023,06/12/2024,7:00,17:00,7AM - 5PM - Mon - Sat,N,302184,N,24TH ST: CASTRO ST to DIAMOND ST (4100 - 4199),4128  24TH ST,1363000,39,2831,009,37.751494045949784,-122.43487038044496,"(37.751494045949784, -122.43487038044496)",,,,,
04/29/2024 10:30:49 AM,04/29/2024 12:35:36 PM,04/29/2024 10:30:49 AM,Construction - Private,StreetSpaceRequest,DBI,Grabher Construction,6502711806,24-45-250525,2,05/02/2024,06/02/2024,7:00,18:00,7AM - 6PM - Mon - Sat,N,312421,W,CENTRAL AVE: GROVE ST to FULTON ST (600 - 699),645 CENTRAL AVE,3865000,20,1186,003,37.775703532104224,-122.4449571327818,"(37.775703532104224, -122.4449571327818)",,,,,
04/19/2024 02:54:16 PM,04/28/2024 12:55:00 PM,04/19/2024 02:54:16 PM,Construction - Private,StreetSpaceRequest,DBI,Dave Mason Building Inc,415-215-6625,24-54-250379,2,04/25/2024,06/25/2024,7:00,18:00,7AM - 6PM - Mon - Fri,N,311848,E,CHESTNUT ST: SCOTT ST to DIVISADERO ST (2300 - 2399),3250 DIVISADERO ST,3982000,20,0936,018B,37.79979810780148,-122.44255718275782,"(37.79979810780148, -122.44255718275782)",,,,,
12/28/2023 07:17:41 AM,12/22/2023 04:54:48 PM,12/28/2023 07:17:41 AM,Construction - Private,StreetSpaceRequest,DBI,"Restoration Workshop, Ltd.",4155960843,23-3-242243,2,01/01/2024,07/01/2024,7:00,18:00,7AM - 6PM - Mon - Sat,N,303965,E,BAKER ST: FULTON ST to MCALLISTER ST (600 - 699),618 BAKER ST,2610000,20,1178,015,37.776842097558834,-122.44122609877398,"(37.776842097558834, -122.44122609877398)",,,,,
12/22/2023 03:12:27 PM,01/15/2024 01:52:26 PM,12/22/2023 03:12:27 PM,Construction - Private,StreetSpaceRequest,DBI,Galaxy Building Construction,415-999-8218,23-53-243377,2,01/09/2024,07/09/2024,7:00,19:00,7AM - 7PM - Mon - Sat,N,303864,W,23RD AVE: PACHECO ST to QUINTARA ST (2000 - 2099),2019 23RD AVE,1226000,20,2143,005,37.7498883033958,-122.48079776543578,"(37.7498883033958, -122.48079776543578)",,,,,
10/25/2023 03:41:51 PM,11/02/2023 02:52:16 PM,10/25/2023 03:41:51 PM,Construction - Private,StreetSpaceRequest,DBI,Scott & Warner Buiders Inc,415-331-9100,23-27-239768,3,11/08/2023,05/08/2024,7:00,18:00,7AM - 6PM - Mon - Sat,N,300075,E,BRODERICK ST: VALLEJO ST to GREEN ST (2600 - 2699),2628 BRODERICK ST,3213000,30,0954,011,37.79463274348566,-122.4431843921084,"(37.79463274348566, -122.4431843921084)",,,,,
04/22/2024 01:26:29 PM,04/29/2024 08:55:12 AM,04/22/2024 01:26:29 PM,Construction - Private,StreetSpaceRequest,DBI,"Roofing Logistics, Inc.",(510) 708-0137,24-9-250474,2,04/29/2024,05/29/2024,7:30,17:30,7:30AM - 5:30PM - Mon - Sat,N,311937,S,15TH ST: SANCHEZ ST to NOE ST (2112 - 2199),2200 MARKET ST,664000,20,3560,053,37.7657893567683,-122.43159801102917,"(37.7657893567683, -122.43159801102917)",,,,,
01/08/2024 08:13:24 AM,01/12/2024 11:37:21 AM,01/08/2024 08:13:24 AM,Construction - Private,StreetSpaceRequest,DBI,DPR Construction,650-399-6865,23-35-243311,24,01/22/2024,07/22/2024,5:00,16:00,5AM - 4PM - Mon - Sat,N,304476,W,19TH AVE: BUCKINGHAM WAY to HOLLOWAY AVE (3501 - 3699) -- WEST --,1600 HOLLOWAY AVE,928202,465,7299,005,37.72379020381864,-122.47984026113465,"(37.72379020381864, -122.47984026113465)",,,,,
04/18/2024 07:35:43 AM,04/29/2024 11:41:11 AM,04/18/2024 07:35:43 AM,Construction - Private,StreetSpaceRequest,DBI,Elliott Build Remodel LLC,415-377-9009,24-9-250131,2,05/01/2024,08/01/2024,7:00,17:00,7AM - 5PM - Mon - Fri,N,311623,N,COLLEGE AVE: SAINT MARYS AVE to CRESCENT AVE \ MISSION ST (1 - 199),157 COLLEGE AVE,4263000,20,6692,017,37.73556623770892,-122.4259391714713,"(37.73556623770892, -122.4259391714713)",,,,,
11/06/2023 08:05:37 AM,11/17/2023 09:49:47 AM,11/06/2023 08:05:37 AM,Construction - Private,StreetSpaceRequest,DBI,Art of Construction,6508716791,23-54-240390,5,11/21/2023,05/21/2024,7:00,18:00,7AM - 6PM - Mon - Sat,N,300824,S,BELGRAVE AVE: SHRADER ST to STANYAN ST (65 - 199),115 BELGRAVE AVE,2887000,75,2688,075,37.75934610828666,-122.4499760365298,"(37.75934610828666, -122.4499760365298)",,,,,
04/30/2024 09:05:06 AM,04/30/2024 02:09:45 PM,04/30/2024 09:05:06 AM,Construction - Private,StreetSpaceRequest,DBI,Aya Homes,(415) 347-1907,24-50-250919,2,05/06/2024,07/06/2024,8:00,18:00,8AM - 6PM - Mon - Sat,N,312480,S,14TH ST: NOE ST to CASTRO ST (900 - 999),931 14TH ST,600000,20,3540,137,37.76716895850515,-122.43417215216999,"(37.76716895850515, -122.43417215216999)",,,,,
04/29/2024 07:34:28 AM,04/30/2024 02:04:24 PM,04/29/2024 07:34:28 AM,Construction - Private,StreetSpaceRequest,DBI,Spl construction SF,4152052380,24-34-250573,2,05/01/2024,07/01/2024,7:00,18:00,7AM - 6PM - Mon - Sat,N,312382,S,16TH ST: DEHON ST to SANCHEZ ST (3466 - 3499),3479 16TH ST,742000,20,3565,091,37.76416870230856,-122.43039745605832,"(37.76416870230856, -122.43039745605832)",,,,,
04/25/2024 12:27:40 PM,04/30/2024 08:25:03 AM,04/25/2024 12:27:40 PM,Construction - Private,StreetSpaceRequest,DBI,Mullan Enterprises,4158500105,24-32-250722,2,05/09/2024,08/09/2024,7:00,18:00,7AM - 6PM - Mon - Sat,N,312231,N,19TH ST: CONNECTICUT ST to ARKANSAS ST (1500 - 1599),1566 19TH ST,948000,20,4035,016A,37.76132427940977,-122.39809060518317,"(37.76132427940977, -122.39809060518317)",,,,,
04/01/2024 01:34:08 PM,05/01/2024 09:50:24 AM,04/01/2024 01:34:08 PM,Construction - Private,StreetSpaceRequest,DBI,Tolo Construction,408-849-9619,24-21-249001,3,04/30/2024,06/30/2024,7:00,17:00,7AM - 5PM - Mon - Sat,N,310401,E,21ST AVE: CLEMENT ST to GEARY BLVD (300 - 399),380 21ST AVE,1074000,42,1452,024,37.7808179536078,-122.4801576347356,"(37.7808179536078, -122.4801576347356)",,,,,
04/30/2024 02:04:15 PM,05/01/2024 02:02:41 PM,04/30/2024 02:04:15 PM,Construction - Private,StreetSpaceRequest,DBI,Advanced Design,(415) 759-6962,24-23-250043,2,05/03/2024,07/03/2024,8:00,18:00,8AM - 6PM - Mon - Sat,N,312552,W,05TH AVE: JUDAH ST \ PARNASSUS AVE to KIRKHAM ST (1400 - 1499),1417 05TH AVE,287000,20,1848,005,37.76193076476392,-122.4621972773598,"(37.76193076476392, -122.4621972773598)",,,,,
04/19/2024 02:18:06 PM,05/01/2024 08:21:53 AM,04/19/2024 02:18:06 PM,Construction - Private,StreetSpaceRequest,DBI,Clayton Trimbell & Company,415-660-5604,24-26-250376,2,04/25/2024,06/25/2024,7:00,18:00,7AM - 6PM - Mon - Fri,N,311847,N,CLAY ST: SPRUCE ST to MAPLE ST (3700 - 3799),3740 CLAY ST,4124000,20,0993,007,37.788413713915276,-122.45445809048793,"(37.788413713915276, -122.45445809048793)",,,,,
04/30/2024 12:26:37 PM,04/30/2024 03:47:48 PM,04/30/2024 12:26:37 PM,Construction - Private,StreetSpaceRequest,DBI,Epoxy Subsequent,9167102167,24-54-250497,2,05/01/2024,06/01/2024,8:30,18:00,8:30AM - 6PM - Mon - Sat,N,312534,N,10TH ST: HARRISON ST to BRYANT ST \ HWY 101 S ON RAMP (400 - 499),465 10TH ST,490000,20,3525,093,37.77095238151587,-122.41005359659876,"(37.77095238151587, -122.41005359659876)",,,,,
04/30/2024 11:35:02 AM,05/01/2024 03:27:03 PM,04/30/2024 11:35:03 AM,Construction - City Agency,StreetSpaceRequest,BSM Non Construction,Cahill Contractors,415 650 7454,24TOC-02399,5,05/06/2024,05/10/2024,7:00,17:00,"7AM - 5PM - Mon,Tue,Wed,Thu,Fri",N,312528,E,42ND AVE: IRVING ST to JUDAH ST (1300 - 1399),1360 43RD AVE,1933000,80,1797,007,37.76138549306299,-122.50223225378458,"(37.76138549306299, -122.50223225378458)",,,,,
04/10/2024 12:12:16 PM,05/01/2024 09:36:36 PM,04/10/2024 12:12:16 PM,Construction - Private,StreetSpaceRequest,DBI,CHUBBY CONSTRUCTION,(415) 640-0335,24-16-249686,2,04/24/2024,10/24/2024,8:00,18:00,8AM - 6PM - Mon - Sat,N,311057,N,17TH ST: POND ST to NOE ST (3862 - 3899),3886 17TH ST,808000,20,3564,078,37.76285408548358,-122.43258967185177,"(37.76285408548358, -122.43258967185177)",,,,,
04/29/2024 08:45:41 AM,05/02/2024 09:17:45 AM,04/29/2024 08:45:41 AM,Construction - Private,StreetSpaceRequest,DBI,Robison Nieri White Const,650-737-1600,24-49-250862,2,05/06/2024,07/06/2024,7:30,16:30,7:30AM - 4:30PM - Mon - Fri,N,312391,S,BRANNAN ST: DELANCEY ST to COLIN P KELLY JR ST (200 - 270),219 BRANNAN ST,3072000,20,3789,518,37.7826462851955,-122.39038814491572,"(37.7826462851955, -122.39038814491572)",,,,,
04/30/2024 01:15:35 PM,05/02/2024 11:51:03 AM,04/30/2024 01:15:36 PM,Construction - City Agency,StreetSpaceRequest,BSM Non Construction,"PODS, Inc",949-939-3459,24SC-00176,2,05/06/2024,05/07/2024,0:00,23:00,ANYTIME - Mon - Tue,N,312542,E,28TH AVE: ULLOA ST to VICENTE ST (2500 - 2599),2562 28TH AVE,1596000,25,2428,008J,37.739606724137445,-122.4847943732568,"(37.739606724137445, -122.4847943732568)",,,,,
04/24/2024 11:39:14 AM,05/02/2024 11:10:41 AM,04/24/2024 11:39:14 AM,Construction - Private,StreetSpaceRequest,DBI,Cobble & Forge,415-452-8959,24-47-250597,2,05/06/2024,06/06/2024,7:00,18:00,7AM - 6PM - Mon - Fri,N,312106,N,23RD ST: SANCHEZ ST to NOE ST (3900 - 3999),3956  23RD ST,1281000,25,3625,015,37.75332693914882,-122.43106930743788,"(37.75332693914882, -122.43106930743788)",,,,,
05/02/2024 10:00:07 AM,,05/02/2024 10:00:07 AM,Construction - Private,StreetSpaceRequest,DBI,YK Scaffold Company,415-467-1788,24-14-249378,2,05/13/2024,06/13/2024,7:00,18:00,7AM - 6PM - Mon - Fri,N,312664,S,BUENA VISTA AVE WEST: BUENA VISTA AVE \ UNNAMED 080 to BUENA VISTA AVE \ JAVA ST (512 - 599),515  BUENA VISTA AVE WEST,3367000,20,2616,017,37.765864885418985,-122.4431211986983,"(37.765864885418985, -122.4431211986983)",,,,,
05/01/2024 09:53:43 AM,05/02/2024 11:24:05 AM,05/01/2024 09:53:43 AM,Construction - City Agency,StreetSpaceRequest,Self Print,Pacific Gas & Electric,800-pge-5000,24TOC-02416,4,05/09/2024,05/09/2024,7:00,14:00,7:00am - 2:00pm - Thu Only,N,312585,E,BUCHANAN ST: UNION ST to FILBERT ST (3000 - 3099),,3349000,60,,,37.79797299148434,-122.43229847594489,"(37.79797299148434, -122.43229847594489)",,,,,
04/29/2024 02:20:25 PM,05/01/2024 05:27:57 PM,04/29/2024 02:20:25 PM,Construction - Private,StreetSpaceRequest,DBI,Build SF,(415) 602-4062,24-33-250792,2,05/13/2024,08/13/2024,7:30,17:00,7:30AM - 5PM - Mon - Fri,N,312444,S,BRYANT ST: 02ND ST to JACK LONDON ALY (400 - 451),415 BRYANT ST,3280000,20,3775,164,37.78256681666602,-122.39386339054809,"(37.78256681666602, -122.39386339054809)",,,,,
05/01/2024 03:50:14 PM,05/02/2024 10:39:53 AM,05/01/2024 03:50:14 PM,Construction - City Agency,StreetSpaceRequest,BSM Non Construction,"A Plus Tree, Inc.",801 247 1275,24TOC-02433,5,05/06/2024,05/06/2024,8:00,16:00,8AM - 4PM - Mon Only,N,312632,S,18TH ST: BRYANT ST to FLORIDA ST (2800 - 2899),2823 18TH ST,869000,80,4022,027,37.76132429867554,-122.41056444525975,"(37.76132429867554, -122.41056444525975)",,,,,
04/26/2024 01:43:36 PM,05/02/2024 11:10:43 AM,04/26/2024 01:43:36 PM,Construction - Private,DBI,,HAKEWILL CONSTRUCTION CO. INC.,4152855822,202308154449,2,04/23/2024,06/23/2024,7:00,18:00,7AM - 6PM - Mon - Fri,N,312347,B,19TH ST: BRYANT ST to FLORIDA ST (2800 - 2899),2814 19TH ST,962000,20,4022,015,37.76045634563723,-122.41047956511493,"(37.76045634563723, -122.41047956511493)",,,,,
04/24/2024 08:37:01 AM,05/02/2024 01:36:22 PM,04/24/2024 08:37:01 AM,Construction - City Agency,StreetSpaceRequest,BSM Non Construction,Bartlett Tree Experts,415-206-0790,24TOC-02297,7,05/06/2024,05/06/2024,7:00,17:00,7:00AM - 5:00PM - Mon Only,N,312090,V,BRODERICK ST: OAK ST to FELL ST (300 - 399),300 BRODERICK ST,3190000,120,1215,018,37.77343969110129,-122.43875583230091,"(37.77343969110129, -122.43875583230091)",,,,,
04/11/2024 12:55:04 PM,05/01/2024 04:50:55 PM,04/11/2024 12:55:04 PM,Construction - Private,StreetSpaceRequest,DBI,"Krueger Brothers Builders, Inc.",707-252-6688,24-58-249598,2,04/18/2024,05/18/2024,7:00,18:00,7AM - 6PM - Mon - Sat,N,311166,W,CASTRO ST: 23RD ST to ELIZABETH ST (1100 - 1199),1150 CASTRO ST,3799000,21,2804,007,37.752194776953694,-122.43445231494938,"(37.752194776953694, -122.43445231494938)",,,,,
03/22/2024 01:35:06 PM,04/03/2024 10:10:40 AM,03/22/2024 01:35:06 PM,Construction - Private,StreetSpaceRequest,DBI,MF Construction + Renovation,4153103617,24-27-248526,2,03/28/2024,05/28/2024,7:00,17:30,7AM - 5:30PM - Mon - Sat,N,309760,W,DIVISADERO ST: UNION ST to FILBERT ST (2900 - 2999),2939 DIVISADERO ST,4826000,20,0946,004,37.796739931517244,-122.4425229005753,"(37.796739931517244, -122.4425229005753)",,,,,
02/08/2024 11:16:03 AM,02/28/2024 09:13:33 AM,02/08/2024 11:16:03 AM,Construction - Private,StreetSpaceRequest,DBI,Eastwood Development,4153410473,24-27-245748,2,02/29/2024,05/29/2024,7:00,18:00,7AM - 6PM - Mon - Sat,N,306639,W,EDGEWOOD AVE: BELMONT AVE to END: 125-299 BLOCK (125 - 299),299 EDGEWOOD AVE,5084000,20,2641,033,37.76057428094664,-122.45544128008909,"(37.76057428094664, -122.45544128008909)",,,,,
11/14/2023 01:26:43 PM,12/27/2023 02:35:51 PM,11/14/2023 01:26:43 PM,Construction - Private,StreetSpaceRequest,DBI,Concept Design Build,(628) 210-5656,23-30-241100,2,11/30/2023,05/30/2024,7:00,18:00,7AM - 6PM - Mon - Sat,N,301361,E,FILLMORE ST: WALLER ST to LAUSSAT ST (200 - 230),228 FILLMORE ST,5532000,20,0859,022,37.77163987138506,-122.4300808571616,"(37.77163987138506, -122.4300808571616)",,,,,
04/21/2015 08:09:05 AM,04/21/2015 08:25:28 AM,,Construction - Private,DBI,,T T GENERAL CONSTRUCTION,652-4998,201403211414,2,04/24/2025,10/24/2025,7:00,18:00,7AM - 6PM - Mon - Sat,N,15971,B,FOLSOM ST: STONEMAN ST to RIPLEY ST (3299 - 3399),3303 FOLSOM ST,5705000,20,5524,044,37.74497144111638,-122.41301841584578,"(37.74497144111638, -122.41301841584578)",,,,,
05/02/2024 11:50:00 AM,05/03/2024 07:28:23 AM,05/02/2024 11:50:00 AM,Construction - City Agency,StreetSpaceRequest,Self Print,Pacific Gas & Electric,800-pge-5000,24TOC-02463,7,05/09/2024,05/09/2024,8:00,16:00,8:00AM - 4:00PM - Thu Only,N,312703,N,FILBERT ST: BRODERICK ST to BAKER ST (2700 - 2799),,5527000,120,,,37.79686369871653,-122.44477401828752,"(37.79686369871653, -122.44477401828752)",,,,,
03/29/2024 09:53:33 AM,04/04/2024 11:13:20 PM,03/29/2024 09:53:33 AM,Construction - Private,StreetSpaceRequest,DBI,HBM CONSTRUCTION INC.,(510) 786-7488,24-12-248864,2,04/05/2024,06/05/2024,7:00,18:00,7AM - 6PM - Mon - Sat,N,310289,W,FOLSOM ST: 24TH ST to 25TH ST (2800 - 2899),2888 FOLSOM ST,5699000,20,6520,014,37.75119080089131,-122.41426172975144,"(37.75119080089131, -122.41426172975144)",,,,,
04/11/2024 12:55:04 PM,05/01/2024 04:50:55 PM,04/11/2024 12:55:04 PM,Construction - Private,StreetSpaceRequest,DBI,"Krueger Brothers Builders, Inc.",707-252-6688,24-58-249598,2,04/18/2024,05/18/2024,7:00,18:00,7AM - 6PM - Mon - Sat,N,311166,N,ELIZABETH ST: CASTRO ST to DIAMOND ST (600 - 699),1150 CASTRO ST,5148000,21,2804,007,37.752194776953694,-122.43445231494938,"(37.752194776953694, -122.43445231494938)",,,,,
05/01/2024 09:02:53 AM,05/02/2024 01:25:26 PM,05/01/2024 09:02:53 AM,Construction - City Agency,StreetSpaceRequest,Self Print,Pacific Gas & Electric,800-pge-5000,"24TOC-02415,",5,05/04/2024,05/05/2024,9:00,17:00,"9:05AM - 5:00PM - Sat,Sun",N,312578,V,44TH AVE: MORAGA ST to NORIEGA ST (1700 - 1799),,1981000,70,,,37.75399248147841,-122.50332739568564,"(37.75399248147841, -122.50332739568564)",,,,,
05/01/2024 10:06:52 AM,05/02/2024 07:50:21 PM,05/01/2024 10:06:52 AM,Construction - Private,StreetSpaceRequest,DBI,Damar,650-303-6515,24-3-251035,2,05/07/2024,07/07/2024,7:00,18:00,7AM - 6PM - Mon - Sat,N,312586,E,BUCHANAN ST: PACIFIC AVE to BROADWAY (2600 - 2699),2618 BUCHANAN ST,3345000,20,0579,012,37.7944881701417,-122.43128185062324,"(37.7944881701417, -122.43128185062324)",,,,,
03/25/2024 10:41:37 AM,05/03/2024 09:59:51 AM,03/25/2024 10:41:37 AM,Construction - Private,StreetSpaceRequest,DBI,Glam Construction Inc,415-347-7902,24-50-247364,2,05/06/2024,07/06/2024,7:00,17:00,7AM - 5PM - Mon - Sat,N,309849,W,DOWNEY ST: WALLER ST to FREDERICK ST (1 - 99),69 DOWNEY ST,4964000,20,1254,061,37.767696763913946,-122.44752052056228,"(37.767696763913946, -122.44752052056228)",,,,,
05/03/2024 06:04:42 AM,05/03/2024 08:19:44 AM,05/03/2024 06:04:42 AM,Construction - City Agency,StreetSpaceRequest,Self Print,Pacific Gas & Electric,800-pge-5000,24TOC-02472,10,05/06/2024,05/06/2024,7:00,17:00,7:00am - 5:00pm - Mon Only,N,312756,V,CUMBERLAND ST: CHURCH ST to CUMBERLAND ST (200 - 293),,4548000,170,,,37.758829273187,-122.42913590288083,"(37.758829273187, -122.42913590288083)",,,,,
04/22/2024 02:57:15 PM,04/29/2024 12:00:00 AM,04/22/2024 02:57:15 PM,Construction - City Agency,Web Page,BSES,SF Public Works,415 695 2134,1024167,3,05/01/2024,05/31/2024,0:00,23:00,12:01AM - 11:59PM - Mon - Sun,Y,311953,N,EDDY ST: HYDE ST to LARKIN ST (500 - 599),538 Eddy Street,5063000,40,,,37.783413254294096,-122.41670565729967,"(37.783413254294096, -122.41670565729967)",,,,,
04/29/2024 02:39:49 PM,,04/29/2024 02:39:49 PM,Construction - Private,StreetSpaceRequest,DBI,Aim High Scaffolding,(415) 702-6889,24-56-250918,2,05/06/2024,06/06/2024,7:00,18:00,7AM - 6PM - Mon - Sat,N,312454,N,FOERSTER ST: GATUN ALY to TERESITA BLVD (844 - 899),847 FOERSTER ST,5648000,20,3001A,064,37.736806570881555,-122.44786670262648,"(37.736806570881555, -122.44786670262648)",,,,,
03/28/2024 09:59:12 AM,,03/28/2024 09:59:12 AM,Construction - Private,StreetSpaceRequest,DBI,Element Roofing and Waterproofing,(831) 706-5523,24-33-248866,3,04/03/2024,06/03/2024,8:00,17:00,8AM - 5PM - Mon - Fri,N,310179,E,FILLMORE ST: FULTON ST to MCALLISTER ST (900 - 999),926 FILLMORE ST,5540000,40,0780,036,37.778014105942226,-122.43136004271256,"(37.778014105942226, -122.43136004271256)",,,,,
04/11/2024 03:23:56 PM,04/12/2024 09:50:34 AM,04/11/2024 03:23:56 PM,Construction - Private,StreetSpaceRequest,DBI,DN Construction LLC,415-760-7211,24-25-249819,2,04/17/2024,05/17/2024,8:00,18:00,8AM - 6PM - Mon - Sat,N,311201,N,FELL ST: OCTAVIA ST to LAGUNA ST (400 - 499),452 FELL ST,5443000,27,0818,033,37.77579779701973,-122.4252872305133,"(37.77579779701973, -122.4252872305133)",,,,,
03/05/2024 07:46:02 AM,03/14/2024 06:42:41 PM,03/05/2024 07:46:02 AM,Construction - Private,StreetSpaceRequest,DBI,"Tipco Construction, Inc.",(415) 297-8258,24-57-247250,3,03/19/2024,06/19/2024,7:00,17:00,7AM - 5PM - Mon - Fri,N,308321,N,FILBERT ST: REDFIELD ALY to JONES ST (931 - 999),2100 JONES ST,5509000,40,0092,017,37.80075933212878,-122.4157933912041,"(37.80075933212878, -122.4157933912041)",,,,,
04/29/2024 10:50:41 AM,05/01/2024 03:24:33 PM,04/29/2024 10:50:41 AM,Construction - City Agency,StreetSpaceRequest,Self Print,Pacific Gas & Electric,800-pge-5000,"24TOC-02383,",14,05/05/2024,05/05/2024,7:00,17:00,7:00AM - 5:00PM - Sun Only,N,312423,W,BAKER ST: PAGE ST to OAK ST (100 - 199),,2605000,250,,,37.7722459721119,-122.44064067844513,"(37.7722459721119, -122.44064067844513)",,,,,
03/25/2024 11:27:05 AM,05/02/2024 09:09:02 AM,03/25/2024 11:27:05 AM,Construction - Private,StreetSpaceRequest,DBI,"GCI, Inc.",(415) 730-3074,24-27-248607,2,04/01/2024,06/01/2024,7:00,17:00,7AM - 5PM - Mon - Fri,N,309853,N,FELL ST: GOUGH ST to OCTAVIA ST (300 - 399),340 FELL ST,5442000,20,0817,011,37.77609404195766,-122.42371592234035,"(37.77609404195766, -122.42371592234035)",,,,,
03/20/2024 07:36:10 AM,04/05/2024 02:16:07 PM,03/20/2024 07:36:10 AM,Construction - Private,StreetSpaceRequest,DBI,PG&E,925-405-9175,24-4-246975,10,04/02/2024,10/02/2024,7:00,18:00,7AM - 6PM - Mon - Sat,N,309536,N,EDDY ST: HYDE ST to LARKIN ST (500 - 599),600 LARKIN ST,5063000,180,0335,037,37.78367306148706,-122.41687804532926,"(37.78367306148706, -122.41687804532926)",,,,,
04/12/2024 09:31:33 AM,04/19/2024 10:41:02 AM,04/12/2024 09:31:33 AM,Construction - Private,DBI,,Westco Roofing Co. Inc.,5105335270,202403288832,2,04/22/2024,05/22/2024,7:00,17:00,7AM - 5PM - Mon - Fri,N,311233,B,FORD ST: SANCHEZ ST to NOE ST (1 - 99),49 FORD ST,5730000,20,3581,105,37.76164779029343,-122.431674588462,"(37.76164779029343, -122.431674588462)",,,,,
01/02/2024 01:30:48 PM,01/05/2024 03:47:06 PM,01/02/2024 01:30:48 PM,Construction - Private,StreetSpaceRequest,DBI,AC Enterprises,6505881001,23-38-242791,2,01/17/2024,07/17/2024,6:30,16:30,6:30AM - 4:30PM - Mon - Fri,N,304160,S,EUGENIA AVE: BENNINGTON ST \ BOCANA ST to WOOL ST (600 - 699),618 EUGENIA AVE,5306000,20,5666,001,37.740388245122816,-122.41722537107827,"(37.740388245122816, -122.41722537107827)",,,,,
04/09/2024 11:33:50 AM,04/02/2021 03:11:46 PM,04/09/2024 11:33:50 AM,Construction - Private,StreetSpaceRequest,DBI,Stricklin Gen Cont.,415-850-1175,",0",2,04/15/2024,06/15/2024,7:00,17:00,7AM - 5PM - Mon - Sat,N,310971,E,DOLORES ST: 15TH ST to ALERT ALY (201 - 231) -- EAST --,225 DOLORES ST,4864101,20,rto-m,972,37.7660216580493,-122.42642810425885,"(37.7660216580493, -122.42642810425885)",,,,,
04/04/2024 02:27:20 PM,04/10/2024 04:27:29 PM,04/04/2024 02:27:20 PM,Construction - Private,StreetSpaceRequest,DBI,"alvarez construction & tile, inc",4154523487,24-34-248968,3,04/11/2024,06/11/2024,7:30,17:00,7:30AM - 5PM - Mon - Sat,N,310706,S,ELIZABETH ST: SAN JOSE AVE to GUERRERO ST (1 - 99),1153 GUERRERO ST,5141000,40,3645,021,37.75266855513912,-122.42267602501688,"(37.75266855513912, -122.42267602501688)",,,,,
04/29/2024 10:50:41 AM,05/01/2024 03:24:33 PM,04/29/2024 10:50:41 AM,Construction - City Agency,StreetSpaceRequest,Self Print,Pacific Gas & Electric,800-pge-5000,"24TOC-02383,",14,05/05/2024,05/05/2024,7:00,17:00,7:00AM - 5:00PM - Sun Only,N,312423,W,BAKER ST: BUENA VISTA AVE \ HAIGHT ST to PAGE ST (1 - 99),,2604000,250,,,37.77131325255113,-122.44045195723243,"(37.77131325255113, -122.44045195723243)",,,,,
02/01/2024 07:00:36 PM,02/14/2024 05:49:40 PM,02/01/2024 07:00:36 PM,Construction - Private,StreetSpaceRequest,DBI,HITT Contracting Inc.,4084833376,24-16-244435,4,02/15/2024,07/15/2024,7:00,18:00,7AM - 6PM - Mon - Fri,N,306191,W,FRANKLIN ST: PINE ST to CALIFORNIA ST (1600 - 1699),1700 PINE ST,5825000,69,0648,004,37.789352356851545,-122.42412455568905,"(37.789352356851545, -122.42412455568905)",,,,,
04/10/2024 12:06:19 PM,04/11/2024 10:59:01 AM,04/10/2024 12:06:19 PM,Construction - Private,StreetSpaceRequest,DBI,Tom Lee Roofing Inc,4153335373,202404099588,2,04/15/2024,05/15/2024,7:00,18:00,7AM - 6PM - Mon - Sat,N,311053,B,FAIR OAKS ST: 21ST ST to 22ND ST (1 - 99),62 FAIR OAKS,5381000,20,3618,048,37.755703831919206,-122.42465405759651,"(37.755703831919206, -122.42465405759651)",,,,,
04/05/2024 09:46:46 AM,04/15/2024 10:35:33 AM,04/05/2024 09:46:46 AM,Construction - Private,StreetSpaceRequest,DBI,CertaPro Painters of San Francisco,415-661-8400,24-6-249082,2,04/12/2024,05/12/2024,7:00,17:00,7AM - 5PM - Mon - Fri,N,310751,E,EUREKA ST: MARKET ST to 18TH ST (38 - 99),83 EUREKA ST,5317000,20,2649,069,37.76110331387536,-122.43798434729558,"(37.76110331387536, -122.43798434729558)",,,,,
03/08/2024 02:24:50 PM,03/11/2024 05:14:25 PM,03/08/2024 02:24:50 PM,Construction - Private,StreetSpaceRequest,DBI,D3 Construction,4152710528,24-53-247643,2,03/14/2024,05/14/2024,7:00,18:00,7AM - 6PM - Mon - Sat,N,308761,W,DOUGLASS ST: 18TH ST to CASELLI AVE (200 - 248),212 DOUGLASS ST,4943000,20,2691,002A,37.76015632667752,-122.43960221422265,"(37.76015632667752, -122.43960221422265)",,,,,
03/27/2024 03:15:38 PM,04/01/2024 07:39:41 AM,03/27/2024 03:15:38 PM,Construction - Private,StreetSpaceRequest,DBI,Saturn Construction,415 822 8333,24-17-248134,2,03/27/2024,06/27/2024,7:00,18:00,7AM - 6PM - Mon - Sat,N,310130,N,EVERSON ST: BEACON ST to AMATISTA LN (1 - 76),43 EVERSON ST,5352000,20,7542,024,37.73832124532684,-122.43006774810509,"(37.73832124532684, -122.43006774810509)",,,,,
05/02/2024 11:50:00 AM,05/03/2024 07:28:23 AM,05/02/2024 11:50:00 AM,Construction - City Agency,StreetSpaceRequest,Self Print,Pacific Gas & Electric,800-pge-5000,24TOC-02463,7,05/09/2024,05/09/2024,8:00,16:00,8:00AM - 4:00PM - Thu Only,N,312703,S,FILBERT ST: BRODERICK ST to BAKER ST (2700 - 2799),,5527000,120,,,37.79686369871653,-122.44477401828752,"(37.79686369871653, -122.44477401828752)",,,,,
01/30/2024 12:41:57 PM,01/30/2024 03:17:20 PM,01/30/2024 12:41:57 PM,Construction - City Agency,BSMPermits,BSM Construction,Cahill Contractors,(415) 986-0600,24ADS-00005,4,02/01/2024,06/01/2024,7:00,18:00,7AM - 6PM - Mon - Fri,N,305965,S,DR TOM WADDELL PL: POLK ST to VAN NESS AVE (1 - 100),,8277000,56,,,37.777870396525216,-122.41892509804664,"(37.777870396525216, -122.41892509804664)",,,,,
02/13/2024 12:25:07 PM,03/11/2024 02:53:56 PM,02/13/2024 12:25:07 PM,Construction - Private,StreetSpaceRequest,DBI,BAILEY GENERAL CONTRACTING CO,(415) 592-8888,24-28-246119,5,03/09/2024,09/09/2024,7:00,18:00,7AM - 6PM - Mon - Sat,N,307014,S,DUNCAN ST: NEWBURG ST to DIAMOND ST (646 - 699),1501 DIAMOND ST,5007000,80,6604,027,37.74545664869249,-122.43543099947865,"(37.74545664869249, -122.43543099947865)",,,,,
04/05/2024 07:28:26 AM,04/11/2024 05:44:41 PM,04/05/2024 07:28:26 AM,Construction - Private,StreetSpaceRequest,DBI,"Nancy Built, LLC",510-316-3383,24-53-249329,2,04/15/2024,10/15/2024,7:00,17:00,7AM - 5PM - Mon - Sat,N,310728,N,DUBOCE AVE: PEARL ST to GUERRERO ST (166 - 199),176 DUBOCE AVE,4982000,20,3502,027,37.77001379561295,-122.42406065852919,"(37.77001379561295, -122.42406065852919)",,,,,
01/30/2024 12:41:57 PM,01/30/2024 03:17:20 PM,01/30/2024 12:41:57 PM,Construction - City Agency,BSMPermits,BSM Construction,Cahill Contractors,(415) 986-0600,24ADS-00005,4,02/01/2024,06/01/2024,7:00,18:00,7AM - 6PM - Mon - Fri,N,305965,N,DR TOM WADDELL PL: POLK ST to VAN NESS AVE (1 - 100),,8277000,56,,,37.777870396525216,-122.41892509804664,"(37.777870396525216, -122.41892509804664)",,,,,
03/08/2024 02:25:52 PM,03/26/2024 01:22:11 PM,03/08/2024 02:25:52 PM,Construction - Private,StreetSpaceRequest,DBI,CCI General Contractor,415-626-3338,24-0-247614,3,03/22/2024,09/22/2024,7:00,18:00,7AM - 6PM - Mon - Sat,N,308762,N,ERIE ST: FOLSOM ST to SOUTH VAN NESS AVE (1 - 99),275 SOUTH VAN NESS AVE,5239000,40,3530,050,37.76881469576296,-122.41752492739008,"(37.76881469576296, -122.41752492739008)",,,,,
10/30/2023 11:09:23 AM,11/12/2023 11:03:12 AM,10/30/2023 11:09:23 AM,Construction - Private,StreetSpaceRequest,DBI,Clearheart,4159387855,23-6-239623,2,11/17/2023,05/17/2024,0:00,23:00,12:01AM - 11:59PM - Mon - Sun,Y,300327,W,FOLSOM ST: 23RD ST to 24TH ST (2700 - 2799),2722 FOLSOM ST,5698000,20,3641,002,37.75364428163092,-122.41454091291006,"(37.75364428163092, -122.41454091291006)",,,,,
03/06/2024 03:46:12 PM,03/24/2024 02:12:24 PM,03/06/2024 03:46:12 PM,Construction - Private,StreetSpaceRequest,DBI,BJLGC Inc,415-516-5230,24-45-247432,2,03/12/2024,05/12/2024,7:30,17:00,7:30AM - 5PM - Mon - Fri,N,308553,N,FILBERT ST: DIVISADERO ST to BRODERICK ST (2600 - 2699),2610 FILBERT ST,5526000,20,0943,003,37.79741894842436,-122.44266486079881,"(37.79741894842436, -122.44266486079881)",,,,,
04/02/2024 03:00:22 PM,04/18/2024 08:27:14 AM,04/02/2024 03:00:22 PM,Construction - Private,StreetSpaceRequest,DBI,Axis Construction,510-732-6111,24-43-249166,2,04/08/2024,05/08/2024,7:00,18:00,7AM - 6PM - Mon - Fri,N,310500,E,DOLORES ST: CLINTON PARK to 14TH ST (11 - 99) -- EAST --,35 DOLORES ST,4861102,20,3534,139,37.768560096625976,-122.42630819633503,"(37.768560096625976, -122.42630819633503)",,,,,
03/28/2024 11:20:44 AM,04/11/2024 10:50:07 AM,03/28/2024 11:20:44 AM,Construction - Private,StreetSpaceRequest,DBI,Sierra Construction,4157205631,24-11-248198,2,03/27/2024,05/27/2024,7:00,17:00,7AM - 5PM - Mon - Fri,N,310209,W,FOLSOM ST: 15TH ST to 16TH ST (1900 - 1999),1930 FOLSOM ST,5689000,20,3552,007,37.76638186799421,-122.41576529550179,"(37.76638186799421, -122.41576529550179)",,,,,
02/14/2024 09:39:05 AM,02/21/2024 06:09:25 PM,02/14/2024 09:39:05 AM,Construction - Private,StreetSpaceRequest,DBI,Saturn Construction,(415) 822-8333,24-57-245952,2,02/21/2024,05/21/2024,7:00,18:00,7AM - 6PM - Mon - Fri,N,307070,S,EVERSON ST: BEACON ST to AMATISTA LN (1 - 76),43 EVERSON ST,5352000,20,7542,024,37.73832124532684,-122.43006774810509,"(37.73832124532684, -122.43006774810509)",,,,,
03/28/2024 10:20:04 AM,03/29/2024 12:37:52 PM,03/28/2024 10:20:04 AM,Construction - Private,StreetSpaceRequest,DBI,Seismic Retrofitters Inc.,4158224200,24-30-248778,2,04/04/2024,06/04/2024,7:00,17:00,7AM - 5PM - Mon - Sat,N,310183,N,FILBERT ST: FILLMORE ST to STEINER ST (2200 - 2299),2264 FILBERT ST,5522000,25,0515,035,37.7980679939806,-122.43680451421943,"(37.7980679939806, -122.43680451421943)",,,,,
04/12/2024 08:21:06 AM,05/01/2024 06:13:21 PM,04/12/2024 08:21:06 AM,Construction - Private,StreetSpaceRequest,DBI,Clearheart,4159387855,24-8-249674,2,05/18/2024,11/18/2024,0:00,0:00,-  - Mon - Sun,N,311219,W,FOLSOM ST: 23RD ST to 24TH ST (2700 - 2799),2722 FOLSOM ST,5698000,20,3641,002,37.75364428163092,-122.41454091291006,"(37.75364428163092, -122.41454091291006)",,,,,
04/15/2024 02:34:29 PM,04/25/2024 07:55:01 AM,04/15/2024 02:34:29 PM,Construction - Private,StreetSpaceRequest,DBI,"PJD CONSTRUCTION, INC.",415-218-3031,24-14-249967,2,04/22/2024,05/22/2024,7:00,18:00,7AM - 6PM - Mon - Sat,N,311414,N,FELL ST: CLAYTON ST to COLE ST (1900 - 1999),1974 FELL ST,5458000,24,1211,055,37.772671122987916,-122.4503990816874,"(37.772671122987916, -122.4503990816874)",,,,,
04/26/2024 04:26:19 PM,05/03/2024 01:42:51 PM,04/26/2024 04:26:19 PM,Construction - City Agency,StreetSpaceRequest,BSM Non Construction,ACC ENVIRONMENTAL CONSULTANTS,(707) 481-0795,24TOC-02360,4,05/07/2024,05/07/2024,7:00,18:00,7:00AM - 6:00PM - Tue Only,N,312366,O,EDDY ST: WAGNER ALY to LEAVENWORTH ST (340 - 399),385 EDDY ST,5061002,60,0338,018,37.78355990630158,-122.41386307135758,"(37.78355990630158, -122.41386307135758)",,,,,
04/26/2024 12:01:46 PM,05/02/2024 04:46:30 PM,04/26/2024 12:01:46 PM,Construction - Private,StreetSpaceRequest,DBI,Aim High Scaffolding,(415) 702-6889,24-59-250800,3,05/06/2024,06/06/2024,7:00,18:00,7AM - 6PM - Mon - Sat,N,312328,W,BUCHANAN ST: PACIFIC AVE to BROADWAY (2600 - 2699),2200 PACIFIC AVE,3345000,40,0580,037,37.79399654736761,-122.4318125620314,"(37.79399654736761, -122.4318125620314)",,,,,
04/05/2024 11:16:18 AM,04/09/2024 09:41:31 AM,04/05/2024 11:16:18 AM,Construction - Private,StreetSpaceRequest,DBI,BC United Constrction INc,4156567128,24-20-249249,3,04/11/2024,05/11/2024,7:00,18:00,7AM - 6PM - Mon - Sat,N,310790,W,DIVISADERO ST: MCALLISTER ST to GOLDEN GATE AVE (901 - 999) -- WEST --,1604 MCALLISTER ST,4806101,40,1156,008,37.777915825916104,-122.4387087606113,"(37.777915825916104, -122.4387087606113)",,,,,
04/22/2024 03:01:10 PM,04/29/2024 12:00:00 AM,04/22/2024 03:01:10 PM,Construction - City Agency,Web Page,BSES,SF Public Works,415 695 2134,1024168,3,05/06/2024,05/31/2024,0:00,23:00,12:01AM - 11:59PM - Mon - Sun,Y,311954,N,ELLIS ST: TAYLOR ST to JONES ST (300 - 399),374 Ellis,5173000,40,,,37.784970409816644,-122.41196096600248,"(37.784970409816644, -122.41196096600248)",,,,,
05/02/2024 06:29:33 AM,05/03/2024 01:22:27 PM,05/02/2024 06:29:33 AM,Construction - City Agency,StreetSpaceRequest,Self Print,Pacific Gas & Electric,800-pge-5000,24TOC-02448,5,05/07/2024,05/07/2024,7:00,17:00,7:00AM - 5:00PM - Tue Only,N,312641,V,40TH AVE: CABRILLO ST to FULTON ST (800 - 899),,1888000,70,,,37.772769136035734,-122.50032193232857,"(37.772769136035734, -122.50032193232857)",,,,,
04/04/2024 11:29:47 AM,04/15/2024 12:43:00 PM,04/04/2024 11:29:47 AM,Construction - Private,StreetSpaceRequest,DBI,Nancy Built llc,415-828-5772,24-32-249332,2,04/18/2024,07/18/2024,7:00,18:00,7AM - 6PM - Mon - Sat,N,310650,N,EDGEWOOD AVE: BELMONT AVE to END: 125-299 BLOCK (125 - 299),150 EDGEWOOD AVE,5084000,25,,,37.76192528988526,-122.45497837451222,"(37.76192528988526, -122.45497837451222)",,,,,
11/02/2023 01:58:19 PM,11/03/2023 03:04:31 PM,11/02/2023 01:58:19 PM,Construction - Private,StreetSpaceRequest,DBI,Archetype Construction Corp,510-918-2826,"23-21-240420,240420",2,11/06/2023,05/06/2024,8:30,18:00,8:30AM - 6PM - Mon - Sat,N,300666,E,28TH AVE: EL CAMINO DEL MAR to MCLAREN AVE (100 - 162),138 28TH AVE,1574000,28,1331,030,37.78677425332224,-122.48811542097489,"(37.78677425332224, -122.48811542097489)",,,,,
01/09/2024 09:37:43 AM,07/18/2023 03:52:11 PM,01/09/2024 09:37:43 AM,Construction - Private,StreetSpaceRequest,DBI,Oltranti Construction Co. Inc,(415) 606-3199,23-5-231775,4,01/20/2024,05/20/2024,7:00,18:00,7AM - 6PM - Mon - Fri,N,304554,N,FILBERT ST: GOUGH ST to OCTAVIA ST (1700 - 1799),1794 FILBERT ST,5517000,60,0520,015,37.79901939362371,-122.42890914387242,"(37.79901939362371, -122.42890914387242)",,,,,
04/04/2024 10:48:15 AM,01/01/1900 12:00:00 AM,04/04/2024 10:48:15 AM,Construction - Private,StreetSpaceRequest,DBI,deep elm construction LLC,4155779923,24-25-248551,2,04/11/2024,05/11/2024,7:00,18:00,7AM - 6PM - Mon - Sat,N,310636,E,DIVISADERO ST: FELL ST to HAYES ST (500 - 598) -- EAST --,510 DIVISADERO ST,4802201,20,1203,018,37.77429707975744,-122.43731588025,"(37.77429707975744, -122.43731588025)",,,,,
02/26/2024 03:22:58 PM,05/03/2024 02:37:23 PM,02/26/2024 03:22:58 PM,Construction - City Agency,StreetSpaceRequest,BSM Non Construction,DTSM Concepts LLC,310-720-8092,24TOC-01132,3,05/07/2024,05/08/2024,9:00,15:00,"9:00AM - 3:00PM - Tue,Wed",N,307799,V,03RD ST: MINNA ST to HOWARD ST (133 - 199),,167000,30,,,37.78542973689612,-122.40097915722303,"(37.78542973689612, -122.40097915722303)",,,,,
04/23/2024 10:35:25 AM,04/26/2024 07:43:00 PM,04/23/2024 10:35:25 AM,Construction - Private,StreetSpaceRequest,DBI,A.G. Construction,415-846-6668,24-39-250519,2,04/29/2024,06/29/2024,8:00,16:00,8AM - 4PM - Mon - Fri,N,312024,W,FRONT ST: PACIFIC AVE to BROADWAY (700 - 799),733 FRONT ST,5873000,20,0166,009,37.79802707201777,-122.40009191057537,"(37.79802707201777, -122.40009191057537)",,,,,
02/12/2024 12:51:21 PM,04/19/2024 10:43:12 AM,02/12/2024 12:51:21 PM,Construction - Private,DBI,,Tom Lee Roofing Inc.,415-333-5373,202402075484,2,04/22/2024,05/22/2024,7:00,18:00,7AM - 6PM - Mon - Sat,N,306890,B,DENSLOWE DR: WYTON LN to HOLLOWAY AVE (100 - 199),187 DENSLOWE DR,4716000,20,7239A,017,37.72155591708907,-122.47424980358409,"(37.72155591708907, -122.47424980358409)",,,,,
04/29/2024 02:38:36 PM,01/01/1900 12:00:00 AM,04/29/2024 02:38:36 PM,Construction - Private,StreetSpaceRequest,DBI,Aim High Scaffolding,(415) 702-6889,24-56-250918,2,05/06/2024,06/06/2024,7:00,18:00,7AM - 6PM - Mon - Sat,N,312453,N,FOERSTER ST: GATUN ALY to TERESITA BLVD (844 - 899),847 FOERSTER ST,5648000,20,3001A,064,37.736806570881555,-122.44786670262648,"(37.736806570881555, -122.44786670262648)",,,,,
05/03/2024 12:38:21 PM,,05/03/2024 12:38:21 PM,Construction - City Agency,Web Page,BSM Construction,CCSF/BUF/TREE CREW,6286528735,1032060,5,05/07/2024,05/10/2024,7:00,17:00,7AM - 5PM - Tue - Fri,N,312801,S,BUSH ST: OCTAVIA ST to LAGUNA ST (1800 - 1899),1801 Bush St.,3448000,80,,,37.787756491698744,-122.42769482796567,"(37.787756491698744, -122.42769482796567)",,,,,
10/25/2023 03:42:57 PM,11/02/2023 02:28:26 PM,10/25/2023 03:42:57 PM,Construction - Private,StreetSpaceRequest,DBI,Cook Construction,415.652.9274,23-32-239763,2,11/08/2023,05/08/2024,7:00,18:00,7AM - 6PM - Mon - Sat,N,300076,N,FILBERT ST: BAKER ST to LYON ST (2800 - 2899),2830 FILBERT ST,5528000,24,0941,013,37.79696367940253,-122.44624312937088,"(37.79696367940253, -122.44624312937088)",,,,,
04/15/2024 11:20:54 AM,04/16/2024 07:42:59 PM,04/15/2024 11:20:54 AM,Construction - Private,StreetSpaceRequest,DBI,Owner,(650) 219-5538,24-58-249974,2,04/22/2024,06/22/2024,7:00,18:00,7AM - 6PM - Mon - Sat,N,311380,E,FAIR OAKS ST: 25TH ST to 26TH ST (400 - 499),469 FAIR OAKS ST,5385000,20,6533,025,37.74921319169546,-122.42340446780982,"(37.74921319169546, -122.42340446780982)",,,,,
03/27/2024 10:27:54 AM,04/04/2024 05:44:19 PM,03/27/2024 10:27:54 AM,Construction - Private,StreetSpaceRequest,DBI,Axel8 Construction LLC,(510) 759-6916,24-6-248787,2,04/06/2024,06/06/2024,8:00,18:00,8AM - 6PM - Mon - Sat,N,310073,N,FRANCISCO ST: VAN NESS AVE to FRANKLIN ST (1200 - 1299),1234 FRANCISCO ST,5771000,27,0474,006,37.80340628124832,-122.42565805888931,"(37.80340628124832, -122.42565805888931)",,,,,
03/27/2024 01:15:32 PM,04/06/2024 09:11:31 PM,03/27/2024 01:15:32 PM,Construction - Private,StreetSpaceRequest,DBI,D3 Construction,415-626-8300,24-40-248814,2,04/08/2024,06/08/2024,7:00,18:00,7AM - 6PM - Mon - Sat,N,310112,N,DUNCAN ST: NEWBURG ST to DIAMOND ST (646 - 699),658 DUNCAN ST,5007000,20,6589,002K,37.745785942568425,-122.43496053578045,"(37.745785942568425, -122.43496053578045)",,,,,
03/28/2024 09:54:01 AM,01/01/1900 12:00:00 AM,03/28/2024 09:54:01 AM,Construction - Private,StreetSpaceRequest,DBI,Element Roofing and Waterproofing,(831) 706-5523,24-33-248866,3,04/03/2024,06/03/2024,8:00,17:00,8AM - 5PM - Mon - Fri,N,310176,E,FILLMORE ST: FULTON ST to MCALLISTER ST (900 - 999),926 FILLMORE ST,5540000,40,0780,036,37.778014105942226,-122.43136004271256,"(37.778014105942226, -122.43136004271256)",,,,,
04/10/2024 01:13:05 PM,04/23/2024 03:02:42 PM,04/10/2024 01:13:05 PM,Construction - Private,StreetSpaceRequest,DBI,G & C Construction,(925) 234-2003,24-59-249699,2,04/24/2024,07/24/2024,7:00,18:00,7AM - 6PM - Mon - Sat,N,311078,W,DOUGLASS ST: CARSON ST to SEWARD ST (322 - 371),354 DOUGLASS ST,4946000,20,2701,048,37.758067903213714,-122.43930109499442,"(37.758067903213714, -122.43930109499442)",,,,,
03/11/2024 10:46:21 AM,03/27/2024 08:07:53 AM,03/11/2024 10:46:21 AM,Construction - Private,StreetSpaceRequest,DBI,Robert Bernhard Coatings,415-355-9180,24-5-247708,3,03/18/2024,05/18/2024,7:00,17:00,7AM - 5PM - Mon - Fri,N,308851,S,ELLIS ST: DIVISADERO ST to BRODERICK ST (2000 - 2099),1180 BRODERICK ST,5192000,30,1126,038,37.78105044125759,-122.44054370505931,"(37.78105044125759, -122.44054370505931)",,,,,
04/05/2024 09:52:02 AM,04/15/2024 10:34:17 AM,04/05/2024 09:52:02 AM,Construction - Private,StreetSpaceRequest,DBI,CertaPro Painters of San Francisco,415-661-8400,24-25-249083,2,04/15/2024,05/15/2024,7:00,17:00,7AM - 5PM - Mon - Fri,N,310754,W,DOUGLASS ST: 24TH ST to JERSEY ST (800 - 849),818  DOUGLASS ST,4955000,20,6504,008,37.75024519652959,-122.43872085509973,"(37.75024519652959, -122.43872085509973)",,,,,
03/06/2024 07:20:12 AM,03/26/2024 10:02:55 AM,03/06/2024 07:20:12 AM,Construction - Private,StreetSpaceRequest,DBI,McCarthy Builders,562-755-1441,24-1-247282,10,03/19/2024,09/19/2024,7:00,18:00,7AM - 6PM - Mon - Sun,N,308454,E,FONT BLVD: ARBALLO DR \ TAPIA DR to LAKE MERCED BLVD (700 - 898) -- EAST --,700 FONT BLVD,5723201,180,7299,009,37.723008691442246,-122.48358096739862,"(37.723008691442246, -122.48358096739862)",,,,,
05/01/2024 09:35:01 AM,,05/01/2024 09:35:01 AM,Construction - City Agency,Web Page,BSM Construction,SFDPW Cement Shop RJ,4156952134,1030496,2,05/06/2024,06/05/2024,7:00,16:00,7AM - 4PM - Mon - Sat,N,312582,N,DIAMOND ST: 26TH ST to CESAR CHAVEZ ST (1200 - 1299),1339-1345 Diamond St,4750000,20,,,37.74757092402339,-122.43595296441733,"(37.74757092402339, -122.43595296441733)",,,,,
03/18/2024 10:20:48 AM,03/21/2024 11:24:00 AM,03/18/2024 10:20:48 AM,Construction - Private,StreetSpaceRequest,DBI,Russ Murphy Construction,415-723-3063,24-42-248151,2,03/25/2024,05/25/2024,8:00,16:30,8AM - 4:30PM - Mon - Fri,N,309353,W,FAIR OAKS ST: 24TH ST to 25TH ST (300 - 399),360 FAIR OAKS ST,5384000,20,6511,008,37.750914734996854,-122.42420635488237,"(37.750914734996854, -122.42420635488237)",,,,,
04/02/2024 03:01:15 PM,03/19/2024 09:44:40 PM,04/02/2024 03:01:15 PM,Construction - Private,StreetSpaceRequest,DBI,hammerhouse construction,4155167399,24-35-246987,2,03/15/2024,09/15/2024,7:30,17:00,7:30AM - 5PM - Mon - Fri,N,310501,W,FOERSTER ST: JOOST AVE to MANGELS AVE (500 - 599),515 FOERSTER ST,5643000,20,3087,006,37.732592808746254,-122.4491476849493,"(37.732592808746254, -122.4491476849493)",,,,,
05/02/2024 09:59:18 AM,05/03/2024 11:31:21 AM,05/02/2024 09:59:18 AM,Construction - Private,StreetSpaceRequest,DBI,Tom Lee Roofing Inc,4153335373,202404260830,2,05/06/2024,06/06/2024,7:00,18:00,7AM - 6PM - Mon - Sat,N,312663,B,ALABAMA ST: RUTLEDGE ST to RIPLEY ST (1720 - 1799),1767 ALABAMA,2127000,20,5541,017,37.744662815205885,-122.41012083566505,"(37.744662815205885, -122.41012083566505)",,,,,
03/07/2024 01:31:18 PM,03/10/2024 08:19:52 AM,03/07/2024 01:31:18 PM,Construction - Private,StreetSpaceRequest,DBI,Serris Construction,415-297-6095,24-12-247520,2,03/13/2024,05/13/2024,7:00,17:00,7AM - 5PM - Mon - Fri,N,308639,E,DETROIT ST: STAPLES AVE to FLOOD AVE (200 - 299),250 DETROIT ST,4724000,20,3143,033,37.729766608029145,-122.44401690092566,"(37.729766608029145, -122.44401690092566)",,,,,
12/01/2023 10:01:41 AM,01/18/2024 11:19:41 AM,12/01/2023 10:01:41 AM,Construction - Private,StreetSpaceRequest,DBI,HEARTH CORPORATION,4159021777,23-15-242065,2,12/15/2023,06/15/2024,7:00,18:00,7AM - 6PM - Mon - Sat,N,302456,E,DIAMOND ST: ALVARADO ST to 23RD ST (549 - 599),591 DIAMOND ST,4743000,25,2803,017,37.75297099986122,-122.436149190273,"(37.75297099986122, -122.436149190273)",,,,,
02/20/2024 01:31:14 PM,12/28/2023 02:27:39 PM,02/20/2024 01:31:14 PM,Construction - Private,StreetSpaceRequest,DBI,Mercy Housing California,415-214-4543,23SSP-00094,10,02/21/2024,06/27/2024,0:00,23:00,12AM - 11:59PM - Wed - Thu,N,307360,N,DR TOM WADDELL PL: POLK ST to VAN NESS AVE (1 - 100),240 VAN NESS AVE,8277000,177,0811,205,37.77803523298302,-122.41943185222841,"(37.77803523298302, -122.41943185222841)",,,,,
03/04/2024 11:27:26 AM,03/12/2024 04:11:12 PM,03/04/2024 11:27:26 AM,Construction - Private,StreetSpaceRequest,DBI,Elliott Build Remodel LLC,415-377-9009,24-25-246870,2,03/18/2024,06/18/2024,7:00,17:30,7AM - 5:30PM - Mon - Fri,N,308262,E,DIAMOND ST: ARBOR ST to POPPY LN (2541 - 2582),2559 DIAMOND ST,4764000,20,6713,043,37.737989643052316,-122.43440180416141,"(37.737989643052316, -122.43440180416141)",,,,,
05/01/2024 09:37:03 AM,,05/01/2024 09:37:03 AM,Construction - City Agency,Web Page,BSM Construction,SFDPW Cement Shop RJ,4156952134,1030496,2,05/06/2024,06/05/2024,7:00,16:00,7AM - 4PM - Mon - Sat,N,312584,N,DIAMOND ST: CESAR CHAVEZ ST to 27TH ST (1300 - 1399),1339-1345 Diamond St,4751000,20,,,37.74677576019346,-122.43587849119548,"(37.74677576019346, -122.43587849119548)",,,,,
04/22/2024 10:43:02 AM,05/03/2024 02:51:00 PM,04/22/2024 10:43:02 AM,Construction - Private,StreetSpaceRequest,DBI,Rick,(415)379-4166,24-44-250366,3,05/04/2024,11/04/2024,7:00,18:00,7AM - 6PM - Mon - Sat,N,311898,N,CHESTNUT ST: BRODERICK ST to RICHARDSON AVE (2500 - 2584),2544 CHESTNUT ST,3984000,30,0931,013,37.79995474675411,-122.44529907294327,"(37.79995474675411, -122.44529907294327)",,,,,
04/05/2024 09:00:55 AM,04/08/2024 07:03:06 PM,04/05/2024 09:00:55 AM,Construction - Private,StreetSpaceRequest,DBI,Mario sarmento GC,4155153758,24-56-249175,2,04/19/2024,10/19/2024,7:00,18:00,7AM - 6PM - Mon - Sat,N,310747,N,FREDERICK ST: ASHBURY ST to DOWNEY ST (200 - 245),210 FREDERICK ST,5848000,24,1254,019,37.76739911336318,-122.44695354540424,"(37.76739911336318, -122.44695354540424)",,,,,
03/05/2024 07:46:00 AM,04/02/2021 03:11:46 PM,03/05/2024 07:46:00 AM,Construction - Private,StreetSpaceRequest,DBI,"Tipco Construction, Inc.",(415) 297-8258,",0",3,03/19/2024,06/19/2024,7:00,17:00,7AM - 5PM - Mon - Fri,N,308320,B,FILBERT ST: REDFIELD ALY to JONES ST (931 - 999),2100 JONES ST,5509000,40,rto-m,972,37.80061582149614,-122.4154097711322,"(37.80061582149614, -122.4154097711322)",,,,,
02/14/2024 07:18:39 PM,02/28/2024 04:21:37 PM,02/14/2024 07:18:39 PM,Construction - Private,StreetSpaceRequest,DBI,K2 Builders,4152521507,24-32-246140,4,03/01/2024,06/01/2024,7:00,18:00,7AM - 6PM - Mon - Sat,N,307135,W,EUREKA ST: 18TH ST to 19TH ST (100 - 199),150 EUREKA ST,5318000,50,2692,007,37.75990015087857,-122.43850604033716,"(37.75990015087857, -122.43850604033716)",,,,,
05/02/2024 06:29:33 AM,05/03/2024 01:22:27 PM,05/02/2024 06:29:33 AM,Construction - City Agency,StreetSpaceRequest,Self Print,Pacific Gas & Electric,800-pge-5000,24TOC-02448,5,05/07/2024,05/07/2024,7:00,17:00,7:00AM - 5:00PM - Tue Only,N,312641,O,40TH AVE: CABRILLO ST to FULTON ST (800 - 899),,1888000,70,,,37.772769136035734,-122.50032193232857,"(37.772769136035734, -122.50032193232857)",,,,,
01/09/2024 10:58:50 AM,01/17/2024 04:32:10 PM,01/09/2024 10:58:50 AM,Construction - Private,StreetSpaceRequest,DBI,Oltranti Construction Co. Inc,(415) 606-3199,24-28-244057,4,01/20/2024,06/20/2024,7:00,18:00,7AM - 6PM - Mon - Fri,N,304578,N,FILBERT ST: GOUGH ST to OCTAVIA ST (1700 - 1799),1794 FILBERT ST,5517000,60,0520,015,37.79901939362371,-122.42890914387242,"(37.79901939362371, -122.42890914387242)",,,,,
05/03/2024 06:04:42 AM,05/03/2024 08:19:44 AM,05/03/2024 06:04:42 AM,Construction - City Agency,StreetSpaceRequest,Self Print,Pacific Gas & Electric,800-pge-5000,24TOC-02472,3,05/06/2024,05/06/2024,7:00,17:00,7:00am - 5:00pm - Mon Only,N,312756,O,CUMBERLAND ST: CHURCH ST to CUMBERLAND ST (200 - 293),,4548000,30,,,37.758829273187,-122.42913590288083,"(37.758829273187, -122.42913590288083)",,,,,
02/13/2024 12:25:07 PM,03/11/2024 02:53:56 PM,02/13/2024 12:25:07 PM,Construction - Private,StreetSpaceRequest,DBI,BAILEY GENERAL CONTRACTING CO,(415) 592-8888,24-28-246119,2,03/09/2024,09/09/2024,7:00,18:00,7AM - 6PM - Mon - Sat,N,307014,E,DIAMOND ST: DUNCAN ST to 28TH ST (1500 - 1599),1501 DIAMOND ST,4753000,20,6604,027,37.74545664869249,-122.43543099947865,"(37.74545664869249, -122.43543099947865)",,,,,
05/01/2024 09:02:53 AM,05/02/2024 01:25:26 PM,05/01/2024 09:02:53 AM,Construction - City Agency,StreetSpaceRequest,Self Print,Pacific Gas & Electric,800-pge-5000,"24TOC-02415,",5,05/04/2024,05/05/2024,9:00,17:00,"9:05AM - 5:00PM - Sat,Sun",N,312578,O,44TH AVE: MORAGA ST to NORIEGA ST (1700 - 1799),,1981000,70,,,37.75399248147841,-122.50332739568564,"(37.75399248147841, -122.50332739568564)",,,,,
03/15/2024 01:19:00 PM,03/22/2024 12:59:03 PM,03/15/2024 01:19:00 PM,Construction - Private,StreetSpaceRequest,DBI,Podesta Construction,4156421600,24-44-248034,2,03/29/2024,09/29/2024,7:00,18:00,7AM - 6PM - Mon - Sat,N,309284,W,DE HARO ST: 22ND ST to 23RD ST (1000 - 1199),1118 DE HARO ST,4637000,24,4159,022,37.75562455388042,-122.40103341256902,"(37.75562455388042, -122.40103341256902)",,,,,
02/20/2024 01:31:44 PM,12/28/2023 02:27:39 PM,02/20/2024 01:31:44 PM,Construction - Private,StreetSpaceRequest,DBI,Mercy Housing California,415-214-4543,23SSP-00094,10,02/21/2024,06/27/2024,0:00,23:00,12AM - 11:59PM - Wed - Thu,N,307361,N,DR TOM WADDELL PL: POLK ST to VAN NESS AVE (1 - 100),240 VAN NESS AVE,8277000,177,0811,205,37.77803523298302,-122.41943185222841,"(37.77803523298302, -122.41943185222841)",,,,,
